{
"type": "FeatureCollection",
"name": "UnidadesEnsino",
"crs": { "type": "name", "properties": { "name": "urn:ogc:def:crs:OGC:1.3:CRS84" } },
"features": [
{"type":"Feature","properties":{"OBJECTID":1,"REGIONAL_1":"SUL","UNIDADE_1":"EMEB Clovis Huguenei Neto","ENDERECO_1":"Rua Caldas Novas, s/n Bairro Jardim Paulista","X_1":-56.035472,"Y_1":-15.684,"LINK":"https://www.google.com/maps/search/?api=1&query=EMEB+Clovis+Huguenei+Neto%2C+Rua+Caldas+Novas%2C+s/n+Bairro+Jardim+Paulista%2C+Cuiabá%2C+MT","NOMES_BAIRROS":"ÁREAS DE EXPANSÃO URBANA - REGIÃO SUL","CONTROLE_1":"REGIÃO SUL"},"geometry":{"type":"Point","coordinates":[-56.035472,-15.684]}},
{"type":"Feature","properties":{"OBJECTID":2,"REGIONAL_1":"SUL","UNIDADE_1":"EMEB Joana Dark da Silva","ENDERECO_1":"Rua dos Ipês, s/n Bairro Real Parque","X_1":-56.036889,"Y_1":-15.674694,"LINK":"https://www.google.com/maps/search/?api=1&query=EMEB+Joana+Dark+da+Silva%2C+Rua+dos+Ipês%2C+s/n+Bairro+Real+Parque%2C+Cuiabá%2C+MT","NOMES_BAIRROS":"ÁREAS DE EXPANSÃO URBANA - REGIÃO SUL","CONTROLE_1":"REGIÃO SUL"},"geometry":{"type":"Point","coordinates":[-56.036889,-15.674694]}},
{"type":"Feature","properties":{"OBJECTID":3,"REGIONAL_1":"SUL","UNIDADE_1":"CMEI Engenheiro Oscar Amelito","ENDERECO_1":"Rua das Palmeiras, nº 15 Bairo Real Parque","X_1":-56.037694,"Y_1":-15.672361,"LINK":"https://www.google.com/maps/search/?api=1&query=CMEI+Engenheiro+Oscar+Amelito%2C+Rua+das+Palmeiras%2C+nº+15+Bairo+Real+Parque%2C+Cuiabá%2C+MT","NOMES_BAIRROS":"ÁREAS DE EXPANSÃO URBANA - REGIÃO SUL","CONTROLE_1":"REGIÃO SUL"},"geometry":{"type":"Point","coordinates":[-56.037694,-15.672361]}},
{"type":"Feature","properties":{"OBJECTID":4,"REGIONAL_1":"SUL","UNIDADE_1":"EMEB Padre Raimundo Conceição Pombo Moreira da Cruz","ENDERECO_1":"Rua T5, s/n Bairro Parque Cuiabá ","X_1":-56.0406867,"Y_1":-15.6688909,"LINK":"https://www.google.com/maps/search/?api=1&query=EMEB+Padre+Raimundo+Conceição+Pombo+Moreira+da+Cruz%2C+Rua+T5%2C+s/n+Bairro+Parque+Cuiabá%2C+Cuiabá%2C+MT","NOMES_BAIRROS":"PARQUE CUIABÁ","CONTROLE_1":"REGIÃO SUL"},"geometry":{"type":"Point","coordinates":[-56.040686699999981,-15.6688909]}},
{"type":"Feature","properties":{"OBJECTID":5,"REGIONAL_1":"SUL","UNIDADE_1":"EMEB Floriano Bocheneki","ENDERECO_1":"Rua S,Quadra 62 nº 438 Bairro Parque Atalaia","X_1":-56.0591002,"Y_1":-15.6654415,"LINK":"https://www.google.com/maps/search/?api=1&query=EMEB+Floriano+Bocheneki%2C+Rua+S%2CQuadra+62+nº+438+Bairro+Parque+Atalaia%2C+Cuiabá%2C+MT","NOMES_BAIRROS":"PARQUE ATALAIA","CONTROLE_1":"REGIÃO SUL"},"geometry":{"type":"Point","coordinates":[-56.059100199999932,-15.665441499999872]}},
{"type":"Feature","properties":{"OBJECTID":6,"REGIONAL_1":"SUL","UNIDADE_1":"CEIC Professor Aecim Tocantins ","ENDERECO_1":"Rua S, Quadra 61, s/n Bairro Parque Atalaia (ao lado da EMEB Floriano Bocheneki)","X_1":-56.058645,"Y_1":-15.6653603,"LINK":"https://www.google.com/maps/search/?api=1&query=CEIC+Professor+Aecim+Tocantins%2C+Rua+S%2C+Quadra+61%2C+s/n+Bairro+Parque+Atalaia+(ao+lado+da+EMEB+Floriano+Bocheneki)%2C+Cuiabá%2C+MT","NOMES_BAIRROS":"PARQUE ATALAIA","CONTROLE_1":"REGIÃO SUL"},"geometry":{"type":"Point","coordinates":[-56.058645,-15.665360299999975]}},
{"type":"Feature","properties":{"OBJECTID":7,"REGIONAL_1":"SUL","UNIDADE_1":"CMEI Professora Marilia Ines Pedrollo Salomoni","ENDERECO_1":"Av. B, s/n Setor C - Sisan Bairro Residencial Santa Terezinha","X_1":-56.0363962,"Y_1":-15.6632486,"LINK":"https://www.google.com/maps/search/?api=1&query=CMEI+Professora+Marilia+Ines+Pedrollo+Salomoni%2C+Av.+B%2C+s/n+Setor+C+-+Sisan+Bairro+Residencial+Santa+Terezinha%2C+Cuiabá%2C+MT","NOMES_BAIRROS":"RESIDENCIAL COXIPÓ","CONTROLE_1":"REGIÃO SUL"},"geometry":{"type":"Point","coordinates":[-56.036396199999956,-15.663248599999974]}},
{"type":"Feature","properties":{"OBJECTID":8,"REGIONAL_1":"SUL","UNIDADE_1":"CMEI Jornalista Marcos Coutinho","ENDERECO_1":"Rua Dois, s/n Bairro Nova Esperança III","X_1":-55.97725,"Y_1":-15.655611,"LINK":"https://www.google.com/maps/search/?api=1&query=CMEI+Jornalista+Marcos+Coutinho%2C+Rua+Dois%2C+s/n+Bairro+Nova+Esperança+III%2C+Cuiabá%2C+MT","NOMES_BAIRROS":"JARDIM INDUSTRIÁRIO","CONTROLE_1":"REGIÃO SUL"},"geometry":{"type":"Point","coordinates":[-55.97725,-15.655611]}},
{"type":"Feature","properties":{"OBJECTID":9,"REGIONAL_1":"SUL","UNIDADE_1":"EMEB Silva Freire","ENDERECO_1":"Rua Bakairi, s/n Bairro Itapajé","X_1":-56.0274669,"Y_1":-15.6529471,"LINK":"https://www.google.com/maps/search/?api=1&query=EMEB+Silva+Freire%2C+Rua+Bakairi%2C+s/n+Bairro+Itapajé%2C+Cuiabá%2C+MT","NOMES_BAIRROS":"RESIDENCIAL COXIPÓ","CONTROLE_1":"REGIÃO SUL"},"geometry":{"type":"Point","coordinates":[-56.027466899999865,-15.6529471]}},
{"type":"Feature","properties":{"OBJECTID":10,"REGIONAL_1":"SUL","UNIDADE_1":"EMEB Senador Darcy Ribeiro","ENDERECO_1":"Rua 18, Quadra 17, s/n Bairro Jardim Industriário I","X_1":-55.980167,"Y_1":-15.651083,"LINK":"https://www.google.com/maps/search/?api=1&query=EMEB+Senador+Darcy+Ribeiro%2C+Rua+18%2C+Quadra+17%2C+s/n+Bairro+Jardim+Industriário+I%2C+Cuiabá%2C+MT","NOMES_BAIRROS":"JARDIM INDUSTRIÁRIO","CONTROLE_1":"REGIÃO SUL"},"geometry":{"type":"Point","coordinates":[-55.980167,-15.651083]}},
{"type":"Feature","properties":{"OBJECTID":11,"REGIONAL_1":"SUL","UNIDADE_1":"EMEB José Torquato da Silva","ENDERECO_1":"Rua Vinte, s/n Bairro Residencial Coxipó","X_1":-56.0353069,"Y_1":-15.6509277,"LINK":"https://www.google.com/maps/search/?api=1&query=EMEB+José+Torquato+da+Silva%2C+Rua+Vinte%2C+s/n+Bairro+Residencial+Coxipó%2C+Cuiabá%2C+MT","NOMES_BAIRROS":"RESIDENCIAL COXIPÓ","CONTROLE_1":"REGIÃO SUL"},"geometry":{"type":"Point","coordinates":[-56.035306900000023,-15.650927700000011]}},
{"type":"Feature","properties":{"OBJECTID":12,"REGIONAL_1":"SUL","UNIDADE_1":"CEIC José Gabriel da Costa","ENDERECO_1":"Av. Camburiú, Quadra 32, Lote 102 Bairro Parque Geórgia","X_1":-56.0617119,"Y_1":-15.6481383,"LINK":"https://www.google.com/maps/search/?api=1&query=CEIC+José+Gabriel+da+Costa%2C+Av.+Camburiú%2C+Quadra+32%2C+Lote+102+Bairro+Parque+Geórgia%2C+Cuiabá%2C+MT","NOMES_BAIRROS":"PARQUE GEÓRGIA","CONTROLE_1":"REGIÃO SUL"},"geometry":{"type":"Point","coordinates":[-56.061711899999921,-15.648138300000028]}},
{"type":"Feature","properties":{"OBJECTID":13,"REGIONAL_1":"SUL","UNIDADE_1":"CMEI Aliane Fatima Rodrigues Monteiro","ENDERECO_1":"Rua G, Quadra 18, s/n Residencial Aline Novack","X_1":-55.996833,"Y_1":-15.647861,"LINK":"https://www.google.com/maps/search/?api=1&query=CMEI+Aliane+Fatima+Rodrigues+Monteiro%2C+Rua+G%2C+Quadra+18%2C+s/n+Residencial+Aline+Novack%2C+Cuiabá%2C+MT","NOMES_BAIRROS":"PASCOAL RAMOS","CONTROLE_1":"REGIÃO SUL"},"geometry":{"type":"Point","coordinates":[-55.996833,-15.647861]}},
{"type":"Feature","properties":{"OBJECTID":14,"REGIONAL_1":"SUL","UNIDADE_1":"CEIC Lelita Lino Da Silva","ENDERECO_1":"Rua 19, s/n Cohab São Gonçalo","X_1":-56.0461486,"Y_1":-15.6474526,"LINK":"https://www.google.com/maps/search/?api=1&query=CEIC+Lelita+Lino+Da+Silva%2C+Rua+19%2C+s/n+Cohab+São+Gonçalo%2C+Cuiabá%2C+MT","NOMES_BAIRROS":"COHAB SÃO GONÇALO","CONTROLE_1":"REGIÃO SUL"},"geometry":{"type":"Point","coordinates":[-56.046148599999981,-15.647452599999951]}},
{"type":"Feature","properties":{"OBJECTID":15,"REGIONAL_1":"SUL","UNIDADE_1":"CEIC Marechal Rondon","ENDERECO_1":"Rua A, nº 7 Bairro Residencial Marechal Rondon","X_1":-55.99246,"Y_1":-15.6473,"LINK":"https://www.google.com/maps/search/?api=1&query=CEIC+Marechal+Rondon%2C+Rua+A%2C+nº+7+Bairro+Residencial+Marechal+Rondon%2C+Cuiabá%2C+MT","NOMES_BAIRROS":"PASCOAL RAMOS","CONTROLE_1":"REGIÃO SUL"},"geometry":{"type":"Point","coordinates":[-55.99246,-15.6473]}},
{"type":"Feature","properties":{"OBJECTID":16,"REGIONAL_1":"SUL","UNIDADE_1":"EMEB Vereador Paulo de Campos Borges","ENDERECO_1":"Rua A, s/n Residencial Marachal Rondon","X_1":-55.99191,"Y_1":-15.64702,"LINK":"https://www.google.com/maps/search/?api=1&query=EMEB+Vereador+Paulo+de+Campos+Borges%2C+Rua+A%2C+s/n+Residencial+Marachal+Rondon%2C+Cuiabá%2C+MT","NOMES_BAIRROS":"PASCOAL RAMOS","CONTROLE_1":"REGIÃO SUL"},"geometry":{"type":"Point","coordinates":[-55.99191,-15.647019999999884]}},
{"type":"Feature","properties":{"OBJECTID":17,"REGIONAL_1":"SUL","UNIDADE_1":"CEIC Amalia Curvo de Campos","ENDERECO_1":"Av. Principal, s/n Bairro Residencial Coxipó","X_1":-56.0335512,"Y_1":-15.6464733,"LINK":"https://www.google.com/maps/search/?api=1&query=CEIC+Amalia+Curvo+de+Campos%2C+Av.+Principal%2C+s/n+Bairro+Residencial+Coxipó%2C+Cuiabá%2C+MT","NOMES_BAIRROS":"RESIDENCIAL COXIPÓ","CONTROLE_1":"REGIÃO SUL"},"geometry":{"type":"Point","coordinates":[-56.033551199999863,-15.646473300000025]}},
{"type":"Feature","properties":{"OBJECTID":18,"REGIONAL_1":"CENTRO DE DISTRIBUIÇÃO","UNIDADE_1":"Centro de Distribuição da SMECEL (RESERVA TÉCNICA)","ENDERECO_1":"Av. Fernando Correa da Costa, nº 9.650 (na lateral do prédio da Pacaembu Construtora)","X_1":-56.00925,"Y_1":-15.64647,"LINK":"https://www.google.com/maps/place/CNE+Coordenadoria+de+Nutri%C3%A7%C3%A3o+Escolar/@-15.6485944,-56.0119781,727m/data=!3m2!1e3!4b1!4m6!3m5!1s0x939da5f2a218b43d:0x14092f39571b1e20!8m2!3d-15.6485996!4d-56.0094032!16s%2Fg%2F11h6g9wqwp?entry=ttu&g_ep=EgoyMDI2MDMyMi4wIKXMDSoASAFQAw%3D%3D","NOMES_BAIRROS":"SÃO FRANCISCO","CONTROLE_1":"REGIÃO SUL"},"geometry":{"type":"Point","coordinates":[-56.00925,-15.64647]}},
{"type":"Feature","properties":{"OBJECTID":19,"REGIONAL_1":"SUL","UNIDADE_1":"EMEB Ana Teresa Arco Krause","ENDERECO_1":"Rua 13, Quadra 19, s/n Bairro Jardim Industriário II","X_1":-55.976,"Y_1":-15.64525,"LINK":"https://www.google.com/maps/search/?api=1&query=EMEB+Ana+Teresa+Arco+Krause%2C+Rua+13%2C+Quadra+19%2C+s/n+Bairro+Jardim+Industriário+II%2C+Cuiabá%2C+MT","NOMES_BAIRROS":"JARDIM INDUSTRIÁRIO","CONTROLE_1":"REGIÃO SUL"},"geometry":{"type":"Point","coordinates":[-55.976,-15.64525]}},
{"type":"Feature","properties":{"OBJECTID":20,"REGIONAL_1":"ENTIDADE FILANTRÓPICA","UNIDADE_1":"Escola Filantrôpica Superar","ENDERECO_1":"Rua 02, QDA23, Nº 487, Jardim Industriário II","X_1":-55.9740933,"Y_1":-15.6444384,"LINK":"https://www.google.com/maps/search/?api=1&query=Escola+Filantrôpica+Superar%2C+Rua+02%2C+QDA23%2C+Nº+487%2C+Jardim+Industriário+II%2C+Cuiabá%2C+MT","NOMES_BAIRROS":"JARDIM INDUSTRIÁRIO","CONTROLE_1":"REGIÃO SUL"},"geometry":{"type":"Point","coordinates":[-55.9740933,-15.644438399999956]}},
{"type":"Feature","properties":{"OBJECTID":21,"REGIONAL_1":"SUL","UNIDADE_1":"CMEI Auro Ida","ENDERECO_1":"Rua E, s/n Bairro Jardim Passaredo","X_1":-56.00711,"Y_1":-15.64138,"LINK":"https://www.google.com/maps/search/?api=1&query=CMEI+Auro+Ida%2C+Rua+E%2C+s/n+Bairro+Jardim+Passaredo%2C+Cuiabá%2C+MT","NOMES_BAIRROS":"JARDIM PASSAREDO","CONTROLE_1":"REGIÃO SUL"},"geometry":{"type":"Point","coordinates":[-56.00711,-15.64138]}},
{"type":"Feature","properties":{"OBJECTID":22,"REGIONAL_1":"SUL","UNIDADE_1":"EMEB Francisco Pedroso da Silva","ENDERECO_1":"Av. das Flores, nº 306 Bairro São Francisco","X_1":-56.01325,"Y_1":-15.641139,"LINK":"https://www.google.com/maps/search/?api=1&query=EMEB+Francisco+Pedroso+da+Silva%2C+Av.+das+Flores%2C+nº+306+Bairro+São+Francisco%2C+Cuiabá%2C+MT","NOMES_BAIRROS":"SÃO FRANCISCO","CONTROLE_1":"REGIÃO SUL"},"geometry":{"type":"Point","coordinates":[-56.013249999999857,-15.641139]}},
{"type":"Feature","properties":{"OBJECTID":23,"REGIONAL_1":"SUL","UNIDADE_1":"EMEB Tereza Benguela","ENDERECO_1":"Rua A1 s/n Bairro Jardim Comodoro","X_1":-56.0435859,"Y_1":-15.6407413,"LINK":"https://www.google.com/maps/search/?api=1&query=EMEB+Tereza+Benguela%2C+Rua+A1+s/n+Bairro+Jardim+Comodoro%2C+Cuiabá%2C+MT","NOMES_BAIRROS":"JARDIM COMODORO","CONTROLE_1":"REGIÃO SUL"},"geometry":{"type":"Point","coordinates":[-56.043585899999869,-15.640741299999945]}},
{"type":"Feature","properties":{"OBJECTID":24,"REGIONAL_1":"SUL","UNIDADE_1":"EMEB Jesus Criança","ENDERECO_1":"Travessa J, s/n Bairro Nova Esperança I","X_1":-55.97247,"Y_1":-15.63983,"LINK":"https://www.google.com/maps/search/?api=1&query=EMEB+Jesus+Criança%2C+Travessa+J%2C+s/n+Bairro+Nova+Esperança+I%2C+Cuiabá%2C+MT","NOMES_BAIRROS":"NOVA ESPERANÇA","CONTROLE_1":"REGIÃO SUL"},"geometry":{"type":"Point","coordinates":[-55.97247,-15.63983]}},
{"type":"Feature","properties":{"OBJECTID":25,"REGIONAL_1":"ENTIDADE FILANTRÓPICA","UNIDADE_1":"Creche Filantrópica Boa Vontade","ENDERECO_1":"Travessa 20, nº 22, Bairro Jardim Passaredo","X_1":-56.0062826,"Y_1":-15.6391055,"LINK":"https://www.google.com/maps/search/?api=1&query=Creche+Filantrópica+Boa+Vontade%2C+Travessa+20%2C+nº+22%2C+Bairro+Jardim+Passaredo%2C+Cuiabá%2C+MT","NOMES_BAIRROS":"JARDIM PASSAREDO","CONTROLE_1":"REGIÃO SUL"},"geometry":{"type":"Point","coordinates":[-56.006282599999963,-15.639105499999971]}},
{"type":"Feature","properties":{"OBJECTID":26,"REGIONAL_1":"SUL","UNIDADE_1":"CMEI Edgar Santana de Amorim","ENDERECO_1":"Rua 1, s/n Bairro Recanto do Sol","X_1":-55.99745,"Y_1":-15.63907,"LINK":"https://www.google.com/maps/search/?api=1&query=CMEI+Edgar+Santana+de+Amorim%2C+Rua+1%2C+s/n+Bairro+Recanto+do+Sol%2C+Cuiabá%2C+MT","NOMES_BAIRROS":"LAGOA AZUL","CONTROLE_1":"REGIÃO SUL"},"geometry":{"type":"Point","coordinates":[-55.99745,-15.63907]}},
{"type":"Feature","properties":{"OBJECTID":27,"REGIONAL_1":"SUL","UNIDADE_1":"EMEB Profº Onofre de Oliveira","ENDERECO_1":"Rua Marcos da Luz, s/n Bairro Pascoal Ramos","X_1":-55.979556,"Y_1":-15.63875,"LINK":"https://www.google.com/maps/search/?api=1&query=EMEB+Profº+Onofre+de+Oliveira%2C+Rua+Marcos+da+Luz%2C+s/n+Bairro+Pascoal+Ramos%2C+Cuiabá%2C+MT","NOMES_BAIRROS":"PASCOAL RAMOS","CONTROLE_1":"REGIÃO SUL"},"geometry":{"type":"Point","coordinates":[-55.979561896404221,-15.638764340454031]}},
{"type":"Feature","properties":{"OBJECTID":28,"REGIONAL_1":"SUL","UNIDADE_1":"CEIC Portal da Fé","ENDERECO_1":"Linha 18, s/n Chacara 02, 2º Etapa Bairro Pedra 90","X_1":-55.94218,"Y_1":-15.63876,"LINK":"https://www.google.com/maps/search/?api=1&query=CEIC+Portal+da+Fé%2C+Linha+18%2C+s/n+Chacara+02%2C+2º+Etapa+Bairro+Pedra+90%2C+Cuiabá%2C+MT","NOMES_BAIRROS":"PEDRA 90","CONTROLE_1":"REGIÃO SUL"},"geometry":{"type":"Point","coordinates":[-55.94218,-15.63876]}},
{"type":"Feature","properties":{"OBJECTID":29,"REGIONAL_1":"SUL","UNIDADE_1":"CEIC Manoelino de Jesus","ENDERECO_1":"Av. Brasil, s/n Bairro Pascoal Ramos","X_1":-55.980194,"Y_1":-15.63856,"LINK":"https://www.google.com/maps/search/?api=1&query=CEIC+Manoelino+de+Jesus%2C+Av.+Brasil%2C+s/n+Bairro+Pascoal+Ramos%2C+Cuiabá%2C+MT","NOMES_BAIRROS":"PASCOAL RAMOS","CONTROLE_1":"REGIÃO SUL"},"geometry":{"type":"Point","coordinates":[-55.980194,-15.63855999999987]}},
{"type":"Feature","properties":{"OBJECTID":30,"REGIONAL_1":"SUL","UNIDADE_1":"CMEI Antonio Batista da Cruz","ENDERECO_1":"Rua F, s/n Residencial Avelino Lima de Barros","X_1":-55.9875,"Y_1":-15.636528,"LINK":"https://www.google.com/maps/search/?api=1&query=CMEI+Antonio+Batista+da+Cruz%2C+Rua+F%2C+s/n+Residencial+Avelino+Lima+de+Barros%2C+Cuiabá%2C+MT","NOMES_BAIRROS":"SÃO SEBASTIÃO","CONTROLE_1":"REGIÃO SUL"},"geometry":{"type":"Point","coordinates":[-55.9875,-15.636528]}},
{"type":"Feature","properties":{"OBJECTID":31,"REGIONAL_1":"SUL","UNIDADE_1":"EMEB Profº Zeferino Leite de Oliveira","ENDERECO_1":"Av. Newton Rabelo de Castro, s/n Bairro Pedra 90","X_1":-55.94577,"Y_1":-15.63593,"LINK":"https://www.google.com/maps/search/?api=1&query=EMEB+Profº+Zeferino+Leite+de+Oliveira%2C+Av.+Newton+Rabelo+de+Castro%2C+s/n+Bairro+Pedra+90%2C+Cuiabá%2C+MT","NOMES_BAIRROS":"PEDRA 90","CONTROLE_1":"REGIÃO SUL"},"geometry":{"type":"Point","coordinates":[-55.94577,-15.63592999999986]}},
{"type":"Feature","properties":{"OBJECTID":32,"REGIONAL_1":"SUL","UNIDADE_1":"CEIC Silva Freire","ENDERECO_1":"Rodovia Palmiro Paes de Barros, s/n","X_1":-56.0481149,"Y_1":-15.6353189,"LINK":"https://www.google.com/maps/search/?api=1&query=CEIC+Silva+Freire%2C+Rodovia+Palmiro+Paes+de+Barros%2C+s/n%2C+Cuiabá%2C+MT","NOMES_BAIRROS":"VISTA ALEGRE","CONTROLE_1":"REGIÃO SUL"},"geometry":{"type":"Point","coordinates":[-56.048114899999973,-15.635318900000016]}},
{"type":"Feature","properties":{"OBJECTID":33,"REGIONAL_1":"SUL","UNIDADE_1":"EMEB Eugênia Pereira de Mello","ENDERECO_1":"Rua Treze de Maio, s/n Bairro Vista Alegre","X_1":-56.0494867,"Y_1":-15.6352962,"LINK":"https://www.google.com/maps/search/?api=1&query=EMEB+Eugênia+Pereira+de+Mello%2C+Rua+Treze+de+Maio%2C+s/n+Bairro+Vista+Alegre%2C+Cuiabá%2C+MT","NOMES_BAIRROS":"VISTA ALEGRE","CONTROLE_1":"REGIÃO SUL"},"geometry":{"type":"Point","coordinates":[-56.049486699999932,-15.635296199999914]}},
{"type":"Feature","properties":{"OBJECTID":34,"REGIONAL_1":"SUL","UNIDADE_1":"CMEI Professor Ady de Figueiredo","ENDERECO_1":"Rua 35, s/n Bairro Pedra 90","X_1":-55.94677,"Y_1":-15.63463,"LINK":"https://www.google.com/maps/search/?api=1&query=CMEI+Professor+Ady+de+Figueiredo%2C+Rua+35%2C+s/n+Bairro+Pedra+90%2C+Cuiabá%2C+MT","NOMES_BAIRROS":"PEDRA 90","CONTROLE_1":"REGIÃO SUL"},"geometry":{"type":"Point","coordinates":[-55.94677,-15.63463]}},
{"type":"Feature","properties":{"OBJECTID":35,"REGIONAL_1":"SUL","UNIDADE_1":"CMEI Jaira Cuiabano Correa da Costa","ENDERECO_1":"Rua 57, Quadra 217, nº 07 Bairro Pedra 90","X_1":-55.94161,"Y_1":-15.6336,"LINK":"https://www.google.com/maps/search/?api=1&query=CMEI+Jaira+Cuiabano+Correa+da+Costa%2C+Rua+57%2C+Quadra+217%2C+nº+07+Bairro+Pedra+90%2C+Cuiabá%2C+MT","NOMES_BAIRROS":"PEDRA 90","CONTROLE_1":"REGIÃO SUL"},"geometry":{"type":"Point","coordinates":[-55.94161,-15.6336]}},
{"type":"Feature","properties":{"OBJECTID":36,"REGIONAL_1":"SUL","UNIDADE_1":"EMEB São Sebastião","ENDERECO_1":"Rua São Jerônimo, nº 502 Bairro São Sebastião","X_1":-55.98482,"Y_1":-15.63348,"LINK":"https://www.google.com/maps/search/?api=1&query=EMEB+São+Sebastião%2C+Rua+São+Jerônimo%2C+nº+502+Bairro+São+Sebastião%2C+Cuiabá%2C+MT","NOMES_BAIRROS":"SÃO SEBASTIÃO","CONTROLE_1":"REGIÃO SUL"},"geometry":{"type":"Point","coordinates":[-55.98482,-15.63348]}},
{"type":"Feature","properties":{"OBJECTID":37,"REGIONAL_1":"SUL","UNIDADE_1":"CEIC São Benedito","ENDERECO_1":"ao lado da EMEB São Sebastião","X_1":-55.9845,"Y_1":-15.63347,"LINK":"https://www.google.com/maps/search/?api=1&query=CEIC+São+Benedito%2C+ao+lado+da+EMEB+São+Sebastião%2C+Cuiabá%2C+MT","NOMES_BAIRROS":"SÃO SEBASTIÃO","CONTROLE_1":"REGIÃO SUL"},"geometry":{"type":"Point","coordinates":[-55.9845,-15.63347]}},
{"type":"Feature","properties":{"OBJECTID":38,"REGIONAL_1":"LESTE","UNIDADE_1":"EMEB Dom Bosco do Praeirinho ","ENDERECO_1":"Rua Pacaembu, s/n Bairro Praeirinho","X_1":-56.0761841,"Y_1":-15.6321851,"LINK":"https://www.google.com/maps/search/?api=1&query=EMEB+Dom+Bosco+do+Praeirinho%2C+Rua+Pacaembu%2C+s/n+Bairro+Praeirinho%2C+Cuiabá%2C+MT","NOMES_BAIRROS":"PRAEIRINHO","CONTROLE_1":"REGIÃO LESTE"},"geometry":{"type":"Point","coordinates":[-56.076184099999921,-15.632185099999901]}},
{"type":"Feature","properties":{"OBJECTID":39,"REGIONAL_1":"LESTE","UNIDADE_1":"CEIC São Francisco de Assis","ENDERECO_1":"Rua Pacaembu, s/n Bairro Praeirinho","X_1":-56.07566,"Y_1":-15.63188,"LINK":"https://www.google.com/maps/search/?api=1&query=CEIC+São+Francisco+de+Assis%2C+Rua+Pacaembu%2C+s/n+Bairro+Praeirinho%2C+Cuiabá%2C+MT","NOMES_BAIRROS":"PRAEIRINHO","CONTROLE_1":"REGIÃO LESTE"},"geometry":{"type":"Point","coordinates":[-56.07566,-15.63188]}},
{"type":"Feature","properties":{"OBJECTID":40,"REGIONAL_1":"ENTIDADE FILANTRÓPICA","UNIDADE_1":"Entidade Assistencial Criança Feliz","ENDERECO_1":"Av. Edson Luis da Silva, nº 587 Setor II - Bairro Tijucal","X_1":-56.01417283,"Y_1":-15.63179018,"LINK":"https://www.google.com/maps/search/?api=1&query=Entidade+Assistencial+Criança+Feliz%2C+Av.+Edson+Luis+da+Silva%2C+nº+587+Setor+II+-+Bairro+Tijucal%2C+Cuiabá%2C+MT","NOMES_BAIRROS":"TIJUCAL","CONTROLE_1":"REGIÃO SUL"},"geometry":{"type":"Point","coordinates":[-56.01417283,-15.63179018]}},
{"type":"Feature","properties":{"OBJECTID":41,"REGIONAL_1":"SUL","UNIDADE_1":"CEIC Helenita Paes de Assunção","ENDERECO_1":"Rua 228, Quadra 68, s/n Setor II Bairro Tijucal","X_1":-56.01406,"Y_1":-15.63179,"LINK":"https://www.google.com/maps/search/?api=1&query=CEIC+Helenita+Paes+de+Assunção%2C+Rua+228%2C+Quadra+68%2C+s/n+Setor+II+Bairro+Tijucal%2C+Cuiabá%2C+MT","NOMES_BAIRROS":"TIJUCAL","CONTROLE_1":"REGIÃO SUL"},"geometry":{"type":"Point","coordinates":[-56.01406,-15.63179]}},
{"type":"Feature","properties":{"OBJECTID":42,"REGIONAL_1":"SUL","UNIDADE_1":"EMEB Moacyr Gratidiano Dorileo","ENDERECO_1":"Rua dos Pardais, s/n Bairro Parque Ohara","X_1":-56.0443705,"Y_1":-15.6309565,"LINK":"https://www.google.com/maps/search/?api=1&query=EMEB+Moacyr+Gratidiano+Dorileo%2C+Rua+dos+Pardais%2C+s/n+Bairro+Parque+Ohara%2C+Cuiabá%2C+MT","NOMES_BAIRROS":"PARQUE OHARA","CONTROLE_1":"REGIÃO SUL"},"geometry":{"type":"Point","coordinates":[-56.044370500000014,-15.630956500000025]}},
{"type":"Feature","properties":{"OBJECTID":43,"REGIONAL_1":"ENTIDADE FILANTRÓPICA","UNIDADE_1":"Associação Dona Alice Rodrigues (Creche Leãozinho Kids)  ","ENDERECO_1":"Rua Duzentos e Trinta e Sete, QDA 80, nº 72, Bairro Tijucal","X_1":-56.0098105,"Y_1":-15.6306627,"LINK":"https://www.google.com/maps/search/?api=1&query=Associação+Dona+Alice+Rodrigues+(Creche+Leãozinho+Kids)%2C+Rua+Duzentos+e+Trinta+e+Sete%2C+QDA+80%2C+nº+72%2C+Bairro+Tijucal%2C+Cuiabá%2C+MT","NOMES_BAIRROS":"TIJUCAL","CONTROLE_1":"REGIÃO SUL"},"geometry":{"type":"Point","coordinates":[-56.009810500000015,-15.630662699999959]}},
{"type":"Feature","properties":{"OBJECTID":44,"REGIONAL_1":"SUL","UNIDADE_1":"CEIC Rafael Rueda CAIC ","ENDERECO_1":"Rua Caruaru, s/n Bairro Pedra 90","X_1":-55.95831,"Y_1":-15.63045,"LINK":"https://www.google.com/maps/search/?api=1&query=CEIC+Rafael+Rueda+CAIC%2C+Rua+Caruaru%2C+s/n+Bairro+Pedra+90%2C+Cuiabá%2C+MT","NOMES_BAIRROS":"PEDRA 90","CONTROLE_1":"REGIÃO SUL"},"geometry":{"type":"Point","coordinates":[-55.95831,-15.63045]}},
{"type":"Feature","properties":{"OBJECTID":45,"REGIONAL_1":"SUL","UNIDADE_1":"CEIC Mariuza do Carmo Ojeda de Barros","ENDERECO_1":"Av. Espigão, Tijucal (ao lado da quadra poliesportiva)","X_1":-56.008944,"Y_1":-15.63044,"LINK":"https://www.google.com/maps/search/?api=1&query=CEIC+Mariuza+do+Carmo+Ojeda+de+Barros%2C+Av.+Espigão%2C+Tijucal+(ao+lado+da+quadra+poliesportiva)%2C+Cuiabá%2C+MT","NOMES_BAIRROS":"TIJUCAL","CONTROLE_1":"REGIÃO SUL"},"geometry":{"type":"Point","coordinates":[-56.008944,-15.63044]}},
{"type":"Feature","properties":{"OBJECTID":46,"REGIONAL_1":"LESTE","UNIDADE_1":"EMEB Profº Hélio de Souza Vieira ","ENDERECO_1":"Rua Paranapuã, nº 30 Bairro Praeiro","X_1":-56.0746778,"Y_1":-15.6300702,"LINK":"https://www.google.com/maps/search/?api=1&query=EMEB+Profº+Hélio+de+Souza+Vieira%2C+Rua+Paranapuã%2C+nº+30+Bairro+Praeiro%2C+Cuiabá%2C+MT","NOMES_BAIRROS":"PRAEIRO","CONTROLE_1":"REGIÃO LESTE"},"geometry":{"type":"Point","coordinates":[-56.074677799999904,-15.630070199999977]}},
{"type":"Feature","properties":{"OBJECTID":47,"REGIONAL_1":"SUL","UNIDADE_1":"CEIC Clóvis Dias Ferreira","ENDERECO_1":"Rua J, nº 240 Pedra 90","X_1":-55.953583,"Y_1":-15.62977,"LINK":"https://www.google.com/maps/search/?api=1&query=CEIC+Clóvis+Dias+Ferreira%2C+Rua+J%2C+nº+240+Pedra+90%2C+Cuiabá%2C+MT","NOMES_BAIRROS":"PEDRA 90","CONTROLE_1":"REGIÃO SUL"},"geometry":{"type":"Point","coordinates":[-55.953583,-15.62977]}},
{"type":"Feature","properties":{"OBJECTID":48,"REGIONAL_1":"SUL","UNIDADE_1":"EMEB Jean Carlos Pinho Santos","ENDERECO_1":"Pedra 90 (próx. ao CEIC Rafael Rueda)","X_1":-55.95856,"Y_1":-15.62964,"LINK":"https://www.google.com/maps/place/EMEB+Jean+Carlos+Pinho+Santos/@-15.629767,-55.959459,364m/data=!3m1!1e3!4m10!1m2!2m1!1sEMEB+Jean+Carlos+Pinho+Santos,+Pedra+90+(pr%C3%B3x.+ao+CEIC+Rafael+Rueda,+Cuiab%C3%A1,+MT!3m6!1s0x939da4f4ccd78169:0x86ca10a28d3989e5!8m2!3d-15.6297648!4d-55.9581183!15sClFFTUVCIEplYW4gQ2FybG9zIFBpbmhvIFNhbnRvcywgUGVkcmEgOTAgKHByw7N4LiBhbyBDRUlDIFJhZmFlbCBSdWVkYSwgQ3VpYWLDoSwgTVRaTiJMZW1lYiBqZWFuIGNhcmxvcyBwaW5obyBzYW50b3MgcGVkcmEgOTAgcHLDs3ggYW8gY2VpYyByYWZhZWwgcnVlZGEgY3VpYWLDoSBtdJIBF2VkdWNhdGlvbmFsX2luc3RpdHV0aW9umgEjQ2haRFNVaE5NRzluUzBWSlEwRm5TVU5QTVhCbVVtWm5FQUXgAQD6AQQIABAy!16s%2Fg%2F11f3sdsb78?entry=ttu&g_ep=EgoyMDI2MDMyMy4xIKXMDSoASAFQAw%3D%3D","NOMES_BAIRROS":"PEDRA 90","CONTROLE_1":"REGIÃO SUL"},"geometry":{"type":"Point","coordinates":[-55.95856,-15.62964]}},
{"type":"Feature","properties":{"OBJECTID":49,"REGIONAL_1":"SUL","UNIDADE_1":"CMEI Governador José Garcia Neto","ENDERECO_1":"Rua Dezoito, s/n Bairro Salvador Costa Marques","X_1":-55.98825,"Y_1":-15.629556,"LINK":"https://www.google.com/maps/search/?api=1&query=CMEI+Governador+José+Garcia+Neto%2C+Rua+Dezoito%2C+s/n+Bairro+Salvador+Costa+Marques%2C+Cuiabá%2C+MT","NOMES_BAIRROS":"ZONA DE EXPANSÃO URBANA DO MANDURI","CONTROLE_1":"REGIÃO SUL"},"geometry":{"type":"Point","coordinates":[-55.98825,-15.629556]}},
{"type":"Feature","properties":{"OBJECTID":50,"REGIONAL_1":"SUL","UNIDADE_1":"EMEB Profª Maria Dimpina Lobo Duarte","ENDERECO_1":"Av. Fernando Correa da Costa, nº 4.695 Bairro Chácara dos Pinheiros","X_1":-56.0544738,"Y_1":-15.6286867,"LINK":"https://www.google.com/maps/search/?api=1&query=EMEB+Profª+Maria+Dimpina+Lobo+Duarte%2C+Av.+Fernando+Correa+da+Costa%2C+nº+4.695+Bairro+Chácara+dos+Pinheiros%2C+Cuiabá%2C+MT","NOMES_BAIRROS":"COXIPÓ","CONTROLE_1":"REGIÃO SUL"},"geometry":{"type":"Point","coordinates":[-56.054473799999926,-15.6286867]}},
{"type":"Feature","properties":{"OBJECTID":51,"REGIONAL_1":"SUL","UNIDADE_1":"EMEB Senador Gastão Matos Muller","ENDERECO_1":"Av. Integração Três, s/n Bairro Pedra 90","X_1":-55.95337,"Y_1":-15.62839,"LINK":"https://www.google.com/maps/search/?api=1&query=EMEB+Senador+Gastão+Matos+Muller%2C+Av.+Integração+Três%2C+s/n+Bairro+Pedra+90%2C+Cuiabá%2C+MT","NOMES_BAIRROS":"PEDRA 90","CONTROLE_1":"REGIÃO SUL"},"geometry":{"type":"Point","coordinates":[-55.95337,-15.62839]}},
{"type":"Feature","properties":{"OBJECTID":52,"REGIONAL_1":"SUL","UNIDADE_1":"EMEB Ministro Marcos Freire","ENDERECO_1":"Rua Carvalhos Dourados, nº 325 Bairro Jardim dos Ipês","X_1":-56.015417,"Y_1":-15.6265,"LINK":"https://www.google.com/maps/search/?api=1&query=EMEB+Ministro+Marcos+Freire%2C+Rua+Carvalhos+Dourados%2C+nº+325+Bairro+Jardim+dos+Ipês%2C+Cuiabá%2C+MT","NOMES_BAIRROS":"JARDIM DOS IPÊS","CONTROLE_1":"REGIÃO SUL"},"geometry":{"type":"Point","coordinates":[-56.015417,-15.6265]}},
{"type":"Feature","properties":{"OBJECTID":53,"REGIONAL_1":"LESTE","UNIDADE_1":"EMEB Antonio Ferreira Valentim  ","ENDERECO_1":"Rua M. s/n Bairro Barbado","X_1":-56.0777187,"Y_1":-15.6222851,"LINK":"https://www.google.com/maps/search/?api=1&query=EMEB+Antonio+Ferreira+Valentim%2C+Rua+M.+s/n+Bairro+Barbado%2C+Cuiabá%2C+MT","NOMES_BAIRROS":"GRANDE TERCEIRO","CONTROLE_1":"REGIÃO LESTE"},"geometry":{"type":"Point","coordinates":[-56.0777187,-15.6222851]}},
{"type":"Feature","properties":{"OBJECTID":54,"REGIONAL_1":"LESTE","UNIDADE_1":"CEIC São Matheus","ENDERECO_1":"Rua São Jorge, s/n Bairro São Mateus","X_1":-56.0915665,"Y_1":-15.6209375,"LINK":"https://www.google.com/maps/search/?api=1&query=CEIC+São+Matheus%2C+Rua+São+Jorge%2C+s/n+Bairro+São+Mateus%2C+Cuiabá%2C+MT","NOMES_BAIRROS":"DO TERCEIRO","CONTROLE_1":"REGIÃO LESTE"},"geometry":{"type":"Point","coordinates":[-56.0915665,-15.620937499999968]}},
{"type":"Feature","properties":{"OBJECTID":55,"REGIONAL_1":"OESTE","UNIDADE_1":"EMEB Profº Francisval de Brito ","ENDERECO_1":"Rua João Paulo dos Santos, s/n Bairro Coophamil","X_1":-56.1289401,"Y_1":-15.6187927,"LINK":"https://www.google.com/maps/search/?api=1&query=EMEB+Profº+Francisval+de+Brito%2C+Rua+João+Paulo+dos+Santos%2C+s/n+Bairro+Coophamil%2C+Cuiabá%2C+MT","NOMES_BAIRROS":"COOPHAMIL","CONTROLE_1":"REGIÃO OESTE"},"geometry":{"type":"Point","coordinates":[-56.128940100000023,-15.618792699999972]}},
{"type":"Feature","properties":{"OBJECTID":56,"REGIONAL_1":"LESTE","UNIDADE_1":"EMEB Profº Filogonio Correa ","ENDERECO_1":"Rua Presidente Médici, nº 557 Bairro Campo Velho","X_1":-56.0821579,"Y_1":-15.6185463,"LINK":"https://www.google.com/maps/search/?api=1&query=EMEB+Profº+Filogonio+Correa%2C+Rua+Presidente+Médici%2C+nº+557+Bairro+Campo+Velho%2C+Cuiabá%2C+MT","NOMES_BAIRROS":"CAMPO VELHO","CONTROLE_1":"REGIÃO LESTE"},"geometry":{"type":"Point","coordinates":[-56.082157899999913,-15.618546299999934]}},
{"type":"Feature","properties":{"OBJECTID":57,"REGIONAL_1":"LESTE","UNIDADE_1":"CEIC Josefa Catarina de Almeida","ENDERECO_1":"Rua Maria de Arruda Muller, nº 51 Bairro Campo Velho","X_1":-56.0828498,"Y_1":-15.6185343,"LINK":"https://www.google.com/maps/search/?api=1&query=CEIC+Josefa+Catarina+de+Almeida%2C+Rua+Maria+de+Arruda+Muller%2C+nº+51+Bairro+Campo+Velho%2C+Cuiabá%2C+MT","NOMES_BAIRROS":"CAMPO VELHO","CONTROLE_1":"REGIÃO LESTE"},"geometry":{"type":"Point","coordinates":[-56.082849799999963,-15.618534300000022]}},
{"type":"Feature","properties":{"OBJECTID":58,"REGIONAL_1":"OESTE","UNIDADE_1":"EMEB Profª Rita Caldas Castrillon","ENDERECO_1":"Rua Progresso, s/n Bairro São Benedito (Jardim Ubatã)","X_1":-56.12332,"Y_1":-15.618379,"LINK":"https://www.google.com/maps/search/?api=1&query=EMEB+Profª+Rita+Caldas+Castrillon%2C+Rua+Progresso%2C+s/n+Bairro+São+Benedito+(Jardim+Ubatã)%2C+Cuiabá%2C+MT","NOMES_BAIRROS":"COOPHAMIL","CONTROLE_1":"REGIÃO OESTE"},"geometry":{"type":"Point","coordinates":[-56.12332,-15.618379]}},
{"type":"Feature","properties":{"OBJECTID":59,"REGIONAL_1":"LESTE","UNIDADE_1":"CEIC São José Operário","ENDERECO_1":"Rua Presidente Leite de Figueiredo, s/n Bairro Dom Aquino","X_1":-56.0904792,"Y_1":-15.6173394,"LINK":"https://www.google.com/maps/search/?api=1&query=CEIC+São+José+Operário%2C+Rua+Presidente+Leite+de+Figueiredo%2C+s/n+Bairro+Dom+Aquino%2C+Cuiabá%2C+MT","NOMES_BAIRROS":"DOM AQUINO","CONTROLE_1":"REGIÃO LESTE"},"geometry":{"type":"Point","coordinates":[-56.0904792,-15.6173394]}},
{"type":"Feature","properties":{"OBJECTID":60,"REGIONAL_1":"SUL","UNIDADE_1":"EMEB Maximiano Arcanjo da Cruz","ENDERECO_1":"Rua Paulista, Quadra 15, s/n Bairro Santa Laura","X_1":-55.990056,"Y_1":-15.617083,"LINK":"https://www.google.com/maps/search/?api=1&query=EMEB+Maximiano+Arcanjo+da+Cruz%2C+Rua+Paulista%2C+Quadra+15%2C+s/n+Bairro+Santa+Laura%2C+Cuiabá%2C+MT","NOMES_BAIRROS":"SANTA LAURA","CONTROLE_1":"REGIÃO SUL"},"geometry":{"type":"Point","coordinates":[-55.990056,-15.617083]}},
{"type":"Feature","properties":{"OBJECTID":61,"REGIONAL_1":"SUL","UNIDADE_1":"CEIC Jamil Boutros Nadaf ","ENDERECO_1":"Rua Paulista, nº 125 Bairro Santa Laura","X_1":-55.990917,"Y_1":-15.616306,"LINK":"https://www.google.com/maps/search/?api=1&query=CEIC+Jamil+Boutros+Nadaf%2C+Rua+Paulista%2C+nº+125+Bairro+Santa+Laura%2C+Cuiabá%2C+MT","NOMES_BAIRROS":"SANTA LAURA","CONTROLE_1":"REGIÃO SUL"},"geometry":{"type":"Point","coordinates":[-55.990917,-15.616306]}},
{"type":"Feature","properties":{"OBJECTID":62,"REGIONAL_1":"SUL","UNIDADE_1":"CEIC Lais Amiccuci Soares Martins","ENDERECO_1":"Rua 2, Quadra 05, s/n Bairro Novo Milênio","X_1":-56.00811,"Y_1":-15.616139,"LINK":"https://www.google.com/maps/search/?api=1&query=CEIC+Lais+Amiccuci+Soares+Martins%2C+Rua+2%2C+Quadra+05%2C+s/n+Bairro+Novo+Milênio%2C+Cuiabá%2C+MT","NOMES_BAIRROS":"SÃO JOÃO DEL REY","CONTROLE_1":"REGIÃO SUL"},"geometry":{"type":"Point","coordinates":[-56.00811,-15.616139]}},
{"type":"Feature","properties":{"OBJECTID":63,"REGIONAL_1":"SUL","UNIDADE_1":"CMEI Dr. Leonel de Moura Brizola","ENDERECO_1":"Rua Um, s/n Bairro Liberdade","X_1":-55.9905,"Y_1":-15.614806,"LINK":"https://www.google.com/maps/search/?api=1&query=CMEI+Dr.+Leonel+de+Moura+Brizola%2C+Rua+Um%2C+s%2Fn%2C+Bairro+Liberdade%2C+Cuiab%C3%A1%2C+MT","NOMES_BAIRROS":"SANTA LAURA","CONTROLE_1":"REGIÃO SUL"},"geometry":{"type":"Point","coordinates":[-55.9905,-15.614806]}},
{"type":"Feature","properties":{"OBJECTID":64,"REGIONAL_1":"SUL","UNIDADE_1":"EMEB Maria Elazir Correa de Figueiredo","ENDERECO_1":"Av. Carlos Addor de Souza, s/n Bairro São João Del Rey","X_1":-56.00314,"Y_1":-15.61439,"LINK":"https://www.google.com/maps/search/?api=1&query=EMEB+Maria+Elazir+Correa+de+Figueiredo%2C+Av.+Carlos+Addor+de+Souza%2C+s/n+Bairro+São+João+Del+Rey%2C+Cuiabá%2C+MT","NOMES_BAIRROS":"SÃO JOÃO DEL REY","CONTROLE_1":"REGIÃO SUL"},"geometry":{"type":"Point","coordinates":[-56.00314,-15.61439]}},
{"type":"Feature","properties":{"OBJECTID":65,"REGIONAL_1":"ENTIDADE FILANTRÓPICA","UNIDADE_1":"Associação Filantrópica São Judas Tadeu","ENDERECO_1":"Rua 09, Quadra 19, nº98 - Bairro Osmar Cabral","X_1":-55.9961606,"Y_1":-15.6143255,"LINK":"https://www.google.com/maps/search/?api=1&query=Associação+Filantrópica+São+Judas+Tadeu%2C+Rua+09%2C+Quadra+19%2C+nº98+-+Bairro+Osmar+Cabral%2C+Cuiabá%2C+MT","NOMES_BAIRROS":"OSMAR CABRAL","CONTROLE_1":"REGIÃO SUL"},"geometry":{"type":"Point","coordinates":[-55.996160599999939,-15.6143255]}},
{"type":"Feature","properties":{"OBJECTID":66,"REGIONAL_1":"LESTE","UNIDADE_1":"CEIC Mariana Fernandes Macedo","ENDERECO_1":"Av. Carmindo de Campos, s/n Bairro Dom Aquino","X_1":-56.098121,"Y_1":-15.6137633,"LINK":"https://www.google.com/maps/search/?api=1&query=CEIC+Mariana+Fernandes+Macedo%2C+Av.+Carmindo+de+Campos%2C+s/n+Bairro+Dom+Aquino%2C+Cuiabá%2C+MT","NOMES_BAIRROS":"DOM AQUINO","CONTROLE_1":"REGIÃO LESTE"},"geometry":{"type":"Point","coordinates":[-56.098121,-15.61376329999996]}},
{"type":"Feature","properties":{"OBJECTID":67,"REGIONAL_1":"SUL","UNIDADE_1":"EMEB Osmar José do Carmo Cabral","ENDERECO_1":"Rua 9, Quadra 21, s/n Bairro Osmar Cabral","X_1":-55.99482,"Y_1":-15.61365,"LINK":"https://www.google.com/maps/search/?api=1&query=EMEB+Osmar+José+do+Carmo+Cabral%2C+Rua+9%2C+Quadra+21%2C+s/n+Bairro+Osmar+Cabral%2C+Cuiabá%2C+MT","NOMES_BAIRROS":"OSMAR CABRAL","CONTROLE_1":"REGIÃO SUL"},"geometry":{"type":"Point","coordinates":[-55.99482,-15.61365]}},
{"type":"Feature","properties":{"OBJECTID":68,"REGIONAL_1":"OESTE","UNIDADE_1":"CEIC Maria Benedita Martins de Oliveira","ENDERECO_1":"R. Profa. Almira de Mendonça, s/n - Cidade Alta, Cuiabá - MT, 78158-720","X_1":-56.1246165,"Y_1":-15.6135286,"LINK":"https://www.google.com/maps/search/?api=1&query=Creche+Municipal+Maria+Benedita+Martins+De+Oliveira%2C+Rua+Professora+Almira+de+Mendon%C3%A7a%2C+s%2Fn%2C+Bairro+Cidade+Alta%2C+Cuiab%C3%A1%2C+MT","NOMES_BAIRROS":"CIDADE ALTA","CONTROLE_1":"REGIÃO OESTE"},"geometry":{"type":"Point","coordinates":[-56.124616499999945,-15.6135286]}},
{"type":"Feature","properties":{"OBJECTID":69,"REGIONAL_1":"LESTE","UNIDADE_1":"EMEB Profª Tereza Lobo ","ENDERECO_1":"Av. Carmindo de Campos, nº 3.622 Bairro Dom Aquino","X_1":-56.0992743,"Y_1":-15.6131117,"LINK":"https://www.google.com/maps/search/?api=1&query=EMEB+Profª+Tereza+Lobo%2C+Av.+Carmindo+de+Campos%2C+nº+3.622+Bairro+Dom+Aquino%2C+Cuiabá%2C+MT","NOMES_BAIRROS":"DOM AQUINO","CONTROLE_1":"REGIÃO LESTE"},"geometry":{"type":"Point","coordinates":[-56.099274299999934,-15.613111699999877]}},
{"type":"Feature","properties":{"OBJECTID":70,"REGIONAL_1":"SUL","UNIDADE_1":"EMEB Constança Figueiredo Palma Bem Bem","ENDERECO_1":"Rua 1, s/n Bairro Jardim Fortaleza","X_1":-55.99303,"Y_1":-15.61294,"LINK":"https://www.google.com/maps/search/?api=1&query=EMEB+Constança+Figueiredo+Palma+Bem+Bem%2C+Rua+1%2C+s/n+Bairro+Jardim+Fortaleza%2C+Cuiabá%2C+MT","NOMES_BAIRROS":"JARDIM FORTALEZA","CONTROLE_1":"REGIÃO SUL"},"geometry":{"type":"Point","coordinates":[-55.99303,-15.61294]}},
{"type":"Feature","properties":{"OBJECTID":71,"REGIONAL_1":"SUL","UNIDADE_1":"EMEB Professora Lidioliria Santana","ENDERECO_1":"Av. Principal, s/n Residencial Nico Baracat","X_1":-55.979389,"Y_1":-15.6125,"LINK":"https://www.google.com/maps/place/USF+Nico+Baracat/@-15.6126714,-55.9823456,727m/data=!3m1!1e3!4m6!3m5!1s0x939da591a1a87243:0x8fb917991f4fafb9!8m2!3d-15.6126493!4d-55.9799515!16s%2Fg%2F11vq9tnn2g?entry=ttu&g_ep=EgoyMDI2MDMyMy4xIKXMDSoASAFQAw%3D%3D","NOMES_BAIRROS":"ZONA DE EXPANSÃO URBANA DO MANDURI","CONTROLE_1":"REGIÃO SUL"},"geometry":{"type":"Point","coordinates":[-55.979388999999856,-15.6125]}},
{"type":"Feature","properties":{"OBJECTID":72,"REGIONAL_1":"OESTE","UNIDADE_1":"EMEB São João Bosco ","ENDERECO_1":"Rua Professora Silvia Curvo, s/n  Bairro Cidade Alta","X_1":-56.1263425,"Y_1":-15.6123922,"LINK":"https://www.google.com/maps/search/?api=1&query=EMEB+São+João+Bosco%2C+Rua+Professora+Silvia+Curvo%2C+s/n++Bairro+Cidade+Alta%2C+Cuiabá%2C+MT","NOMES_BAIRROS":"CIDADE ALTA","CONTROLE_1":"REGIÃO OESTE"},"geometry":{"type":"Point","coordinates":[-56.126342500000021,-15.612392199999931]}},
{"type":"Feature","properties":{"OBJECTID":73,"REGIONAL_1":"SUL","UNIDADE_1":"EMEB Ana Luiza Prado Bastos","ENDERECO_1":"Rua 15, Quadra 12, s/n Bairro Osmar Cabral","X_1":-55.996083,"Y_1":-15.612222,"LINK":"https://www.google.com/maps/search/?api=1&query=EMEB+Ana+Luiza+Prado+Bastos%2C+Rua+15%2C+Quadra+12%2C+s/n+Bairro+Osmar+Cabral%2C+Cuiabá%2C+MT","NOMES_BAIRROS":"OSMAR CABRAL","CONTROLE_1":"REGIÃO SUL"},"geometry":{"type":"Point","coordinates":[-55.996083,-15.612222]}},
{"type":"Feature","properties":{"OBJECTID":74,"REGIONAL_1":"LESTE","UNIDADE_1":"CEIC Colomba Cacelia Lombardi Dorileo","ENDERECO_1":"Rua 1.900, Quadra 30, nº 20 Bairro Jardim Imperial (ao lado da EMEB Profª Maria Ambrósio Pommot)","X_1":-56.0263207,"Y_1":-15.6109532,"LINK":"https://www.google.com/maps/search/?api=1&query=CEIC+Colomba+Cacelia+Lombardi+Dorileo%2C+Rua+1.900%2C+Quadra+30%2C+nº+20+Bairro+Jardim+Imperial+(ao+lado+da+EMEB+Profª+Maria+Ambrósio+Pommot)%2C+Cuiabá%2C+MT","NOMES_BAIRROS":"JARDIM IMPERIAL","CONTROLE_1":"REGIÃO LESTE"},"geometry":{"type":"Point","coordinates":[-56.026320699999985,-15.610953199999983]}},
{"type":"Feature","properties":{"OBJECTID":75,"REGIONAL_1":"LESTE","UNIDADE_1":"EMEB Profª Maria Ambrósio Pommot  ","ENDERECO_1":"Rua 1.900, Quadra 30, nº 20 Bairro Jardim Imperial","X_1":-56.0262359,"Y_1":-15.6109341,"LINK":"https://www.google.com/maps/search/?api=1&query=EMEB+Profª+Maria+Ambrósio+Pommot%2C+Rua+1.900%2C+Quadra+30%2C+nº+20+Bairro+Jardim+Imperial%2C+Cuiabá%2C+MT","NOMES_BAIRROS":"JARDIM IMPERIAL","CONTROLE_1":"REGIÃO LESTE"},"geometry":{"type":"Point","coordinates":[-56.026235899999961,-15.6109341]}},
{"type":"Feature","properties":{"OBJECTID":76,"REGIONAL_1":"ENTIDADE FILANTRÓPICA","UNIDADE_1":"Creche Nina Zaque \n( Seara de Luz)","ENDERECO_1":"Rua Estrada Colina Verde, S/Nº, QDA 05, Lote 60, Bairro Liberdade","X_1":-55.9853698,"Y_1":-15.6100219,"LINK":"https://www.google.com/maps/search/?api=1&query=Creche+Nina+Zaque+\n(+Seara+de+Luz)%2C+Rua+Estrada+Colina+Verde%2C+S/Nº%2C+QDA+05%2C+Lote+60%2C+Bairro+Liberdade%2C+Cuiabá%2C+MT","NOMES_BAIRROS":"ZONA DE EXPANSÃO URBANA DO MANDURI","CONTROLE_1":"REGIÃO SUL"},"geometry":{"type":"Point","coordinates":[-55.9853698,-15.6100219]}},
{"type":"Feature","properties":{"OBJECTID":77,"REGIONAL_1":"LESTE","UNIDADE_1":"EMEB Santa Cecília ","ENDERECO_1":"Rua Capitão Iporã, nº 162 Bairro Pico do Amor","X_1":-56.0808258,"Y_1":-15.6099929,"LINK":"https://www.google.com/maps/search/?api=1&query=EMEB+Santa+Cecília%2C+Rua+Capitão+Iporã%2C+nº+162+Bairro+Pico+do+Amor%2C+Cuiabá%2C+MT","NOMES_BAIRROS":"PICO DO AMOR","CONTROLE_1":"REGIÃO LESTE"},"geometry":{"type":"Point","coordinates":[-56.080825800000014,-15.6099929]}},
{"type":"Feature","properties":{"OBJECTID":78,"REGIONAL_1":"ENTIDADE FILANTRÓPICA","UNIDADE_1":"Creche Falcãozinho","ENDERECO_1":"Rua Feliciano Galdino, nº 534 - Bairro Porto","X_1":-56.108836,"Y_1":-15.6096427,"LINK":"https://www.google.com/maps/search/?api=1&query=Creche+Falcãozinho%2C+Rua+Feliciano+Galdino%2C+nº+534+-+Bairro+Porto%2C+Cuiabá%2C+MT","NOMES_BAIRROS":"DO PORTO","CONTROLE_1":"REGIÃO OESTE"},"geometry":{"type":"Point","coordinates":[-56.108836,-15.6096427]}},
{"type":"Feature","properties":{"OBJECTID":79,"REGIONAL_1":"LESTE","UNIDADE_1":"EMEB Carlos Alberto Reyes Maldonado ","ENDERECO_1":"Rua 1.600, s/n Bairro Jardim Imperial (ao lado do CMEI Manoel de Barros)","X_1":-56.024467,"Y_1":-15.6094038,"LINK":"https://www.google.com/maps/search/?api=1&query=EMEB+Carlos+Alberto+Reyes+Maldonado%2C+Rua+1.600%2C+s/n+Bairro+Jardim+Imperial+(ao+lado+do+CMEI+Manoel+de+Barros)%2C+Cuiabá%2C+MT","NOMES_BAIRROS":"ÁREAS DE EXPANSÃO URBANA - REGIÃO LESTE","CONTROLE_1":"REGIÃO LESTE"},"geometry":{"type":"Point","coordinates":[-56.024467,-15.609403799999939]}},
{"type":"Feature","properties":{"OBJECTID":80,"REGIONAL_1":"ENTIDADE FILANTRÓPICA","UNIDADE_1":"Associação Beneficente Educativa Cultural Voz da Verdade","ENDERECO_1":"Rua Terezinha, nº 54 - Bairro Cidade Verde","X_1":-56.1332324,"Y_1":-15.6089064,"LINK":"https://www.google.com/maps/search/?api=1&query=Associação+Beneficente+Educativa+Cultural+Voz+da+Verdade%2C+Rua+Terezinha%2C+nº+54+-+Bairro+Cidade+Verde%2C+Cuiabá%2C+MT","NOMES_BAIRROS":"CIDADE VERDE","CONTROLE_1":"REGIÃO OESTE"},"geometry":{"type":"Point","coordinates":[-56.1332324,-15.60890639999991]}},
{"type":"Feature","properties":{"OBJECTID":81,"REGIONAL_1":"ENTIDADE FILANTRÓPICA","UNIDADE_1":"Creche Voz da Verdade (Unidade do Distrito da Guia)","ENDERECO_1":"Rua Coronel Vicente de Figueiredo, S/Nº, Distrito de Nossa Senhora da Guia","X_1":-56.1332324,"Y_1":-15.6089064,"LINK":"https://www.google.com/maps/search/?api=1&query=Creche+Voz+da+Verdade+(Unidade+do+Distrito+da+Guia)%2C+Rua+Coronel+Vicente+de+Figueiredo%2C+S/Nº%2C+Distrito+de+Nossa+Senhora+da+Guia%2C+Cuiabá%2C+MT","NOMES_BAIRROS":"CIDADE VERDE","CONTROLE_1":"REGIÃO OESTE"},"geometry":{"type":"Point","coordinates":[-56.1332324,-15.60890639999991]}},
{"type":"Feature","properties":{"OBJECTID":82,"REGIONAL_1":"LESTE","UNIDADE_1":"CMEI Manoel de Barros","ENDERECO_1":"Rua 1.600, s/n Bairro Jardim Imperial","X_1":-56.0247866,"Y_1":-15.6088421,"LINK":"https://www.google.com/maps/search/?api=1&query=CMEI+Manoel+de+Barros%2C+Rua+1.600%2C+s/n+Bairro+Jardim+Imperial%2C+Cuiabá%2C+MT","NOMES_BAIRROS":"ÁREAS DE EXPANSÃO URBANA - REGIÃO LESTE","CONTROLE_1":"REGIÃO LESTE"},"geometry":{"type":"Point","coordinates":[-56.02478659999997,-15.6088421]}},
{"type":"Feature","properties":{"OBJECTID":83,"REGIONAL_1":"LESTE","UNIDADE_1":"CEIC Santa Inês – Poção ","ENDERECO_1":"Poção, Cuiabá - MT, 78015-300","X_1":-56.08753,"Y_1":-15.60869,"LINK":"https://www.google.com/maps/search/?api=1&query=CEIC+Santa+Inês+–+Poção%2C+Está+em+um+prédio+alugado%2C+Cuiabá%2C+MT","NOMES_BAIRROS":"DO POÇÃO","CONTROLE_1":"REGIÃO LESTE"},"geometry":{"type":"Point","coordinates":[-56.08753,-15.60869]}},
{"type":"Feature","properties":{"OBJECTID":84,"REGIONAL_1":"SUL","UNIDADE_1":"EMEB Liberdade","ENDERECO_1":"Av. 1, s/n Bairro Osmar Cabral","X_1":-55.995389,"Y_1":-15.608333,"LINK":"https://www.google.com/maps/search/?api=1&query=EMEB+Liberdade%2C+Av.+1%2C+s/n+Bairro+Osmar+Cabral%2C+Cuiabá%2C+MT","NOMES_BAIRROS":"OSMAR CABRAL","CONTROLE_1":"REGIÃO SUL"},"geometry":{"type":"Point","coordinates":[-55.995389,-15.608333]}},
{"type":"Feature","properties":{"OBJECTID":85,"REGIONAL_1":"SUL","UNIDADE_1":"CEIC Maria Nery Batista Ribeiro","ENDERECO_1":"Ao lado da EMEB Liberdade","X_1":-55.994917,"Y_1":-15.608333,"LINK":"https://www.google.com/maps/place/Creche+Municipal+Maria+Nery+Batista+Ribeiro/@-15.6082402,-55.9997764,1455m/data=!3m1!1e3!4m10!1m2!2m1!1sCEIC+Maria+Nery+Batista+Ribeiro,+Ao+lado+da+EMEB+Liberdade,+Cuiab%C3%A1,+MT!3m6!1s0x939da549cd1925ef:0x20dfbb7b904c295f!8m2!3d-15.6082443!4d-55.994417!15sCkdDRUlDIE1hcmlhIE5lcnkgQmF0aXN0YSBSaWJlaXJvLCBBbyBsYWRvIGRhIEVNRUIgTGliZXJkYWRlLCBDdWlhYsOhLCBNVJIBD2RheV9jYXJlX2NlbnRlcuABAA!16s%2Fg%2F11f3m838bv?entry=ttu&g_ep=EgoyMDI2MDMyMy4xIKXMDSoASAFQAw%3D%3D","NOMES_BAIRROS":"OSMAR CABRAL","CONTROLE_1":"REGIÃO SUL"},"geometry":{"type":"Point","coordinates":[-55.994917,-15.608333]}},
{"type":"Feature","properties":{"OBJECTID":86,"REGIONAL_1":"OESTE","UNIDADE_1":"CEIC Jose Nicolau Pinto","ENDERECO_1":"Rua Barão de Melgaço, 1.802 Bairro Porto","X_1":-56.1078675,"Y_1":-15.6080043,"LINK":"https://www.google.com/maps/search/?api=1&query=CEIC+Jose+Nicolau+Pinto%2C+Rua+Barão+de+Melgaço%2C+1.802+Bairro+Porto%2C+Cuiabá%2C+MT","NOMES_BAIRROS":"DO PORTO","CONTROLE_1":"REGIÃO OESTE"},"geometry":{"type":"Point","coordinates":[-56.107867499999941,-15.608004299999948]}},
{"type":"Feature","properties":{"OBJECTID":87,"REGIONAL_1":"LESTE","UNIDADE_1":"EMEB Agostinho Simplício de Figueiredo ","ENDERECO_1":"Rua Amarílio de Almeida, nº 828 Bairro Poção","X_1":-56.0859656,"Y_1":-15.6072553,"LINK":"https://www.google.com/maps/search/?api=1&query=EMEB+Agostinho+Simplício+de+Figueiredo%2C+Rua+Amarílio+de+Almeida%2C+nº+828+Bairro+Poção%2C+Cuiabá%2C+MT","NOMES_BAIRROS":"DO POÇÃO","CONTROLE_1":"REGIÃO LESTE"},"geometry":{"type":"Point","coordinates":[-56.0859656,-15.607255299999906]}},
{"type":"Feature","properties":{"OBJECTID":88,"REGIONAL_1":"SUL","UNIDADE_1":"CMEI Vereador Julio Cesar Pinheiro","ENDERECO_1":"Rua 31, s/n Residencial Francisca Loureira Borba","X_1":-55.98423,"Y_1":-15.60687,"LINK":"https://www.google.com/maps/search/?api=1&query=CMEI+Vereador+Julio+Cesar+Pinheiro%2C+Rua+31%2C+s/n+Residencial+Francisca+Loureira+Borba%2C+Cuiabá%2C+MT","NOMES_BAIRROS":"ZONA DE EXPANSÃO URBANA DO MANDURI","CONTROLE_1":"REGIÃO SUL"},"geometry":{"type":"Point","coordinates":[-55.98423,-15.60687]}},
{"type":"Feature","properties":{"OBJECTID":89,"REGIONAL_1":"OESTE","UNIDADE_1":"EMEB Adelina Pereira Ventura ","ENDERECO_1":"Rua Padre Rolin, s/n Bairro Jardim Indepedência","X_1":-56.1144688,"Y_1":-15.6040413,"LINK":"https://www.google.com/maps/search/?api=1&query=EMEB+Adelina+Pereira+Ventura%2C+Rua+Padre+Rolin%2C+s/n+Bairro+Jardim+Indepedência%2C+Cuiabá%2C+MT","NOMES_BAIRROS":"CIDADE ALTA","CONTROLE_1":"REGIÃO OESTE"},"geometry":{"type":"Point","coordinates":[-56.1144688,-15.604041299999892]}},
{"type":"Feature","properties":{"OBJECTID":90,"REGIONAL_1":"LESTE","UNIDADE_1":"CMEI Coronel José Meirelles","ENDERECO_1":"Rua Maracanã, s/n Bairro Areão","X_1":-56.0832156,"Y_1":-15.6028143,"LINK":"https://www.google.com/maps/search/?api=1&query=CMEI+Coronel+José+Meirelles%2C+Rua+Maracanã%2C+s/n+Bairro+Areão%2C+Cuiabá%2C+MT","NOMES_BAIRROS":"DO AREÃO","CONTROLE_1":"REGIÃO LESTE"},"geometry":{"type":"Point","coordinates":[-56.083215600000017,-15.602814299999977]}},
{"type":"Feature","properties":{"OBJECTID":91,"REGIONAL_1":"LESTE","UNIDADE_1":"CEIC Lucila Ferreira Fortes ","ENDERECO_1":"Rua Desembargador Antônio Quirino Araujo, nº 457 Bairro Areão","X_1":-56.0832041,"Y_1":-15.6022772,"LINK":"https://www.google.com/maps/search/?api=1&query=CEIC+Lucila+Ferreira+Fortes%2C+Rua+Desembargador+Antônio+Quirino+Araujo%2C+nº+457+Bairro+Areão%2C+Cuiabá%2C+MT","NOMES_BAIRROS":"DO AREÃO","CONTROLE_1":"REGIÃO LESTE"},"geometry":{"type":"Point","coordinates":[-56.083204099999989,-15.602277199999946]}},
{"type":"Feature","properties":{"OBJECTID":92,"REGIONAL_1":"OESTE","UNIDADE_1":"EMEB Profª Alzira Valladares ","ENDERECO_1":"Av. Brasil, nº 883 Bairro Jardim Cuiabá","X_1":-56.1138575,"Y_1":-15.6013982,"LINK":"https://www.google.com/maps/search/?api=1&query=EMEB+Profª+Alzira+Valladares%2C+Av.+Brasil%2C+nº+883+Bairro+Jardim+Cuiabá%2C+Cuiabá%2C+MT","NOMES_BAIRROS":"DA GOIABEIRA","CONTROLE_1":"REGIÃO OESTE"},"geometry":{"type":"Point","coordinates":[-56.1138575,-15.601398199999949]}},
{"type":"Feature","properties":{"OBJECTID":93,"REGIONAL_1":"LESTE","UNIDADE_1":"EMEB Henrique da Silva Prado ","ENDERECO_1":"Rua Castro Alves, nº 400 Bairro Areão","X_1":-56.0834955,"Y_1":-15.6013133,"LINK":"https://www.google.com/maps/search/?api=1&query=EMEB+Henrique+da+Silva+Prado%2C+Rua+Castro+Alves%2C+nº+400+Bairro+Areão%2C+Cuiabá%2C+MT","NOMES_BAIRROS":"DO AREÃO","CONTROLE_1":"REGIÃO LESTE"},"geometry":{"type":"Point","coordinates":[-56.083495500000026,-15.601313299999958]}},
{"type":"Feature","properties":{"OBJECTID":94,"REGIONAL_1":"LESTE","UNIDADE_1":"CEIC Santa Clara","ENDERECO_1":"Rua Nova, nº 375 Bairro Jardim Leblon","X_1":-56.0729302,"Y_1":-15.6004706,"LINK":"https://www.google.com/maps/search/?api=1&query=CEIC+Santa+Clara%2C+Rua+Nova%2C+nº+375+Bairro+Jardim+Leblon%2C+Cuiabá%2C+MT","NOMES_BAIRROS":"JARDIM LEBLON","CONTROLE_1":"REGIÃO LESTE"},"geometry":{"type":"Point","coordinates":[-56.072930199999973,-15.600470599999937]}},
{"type":"Feature","properties":{"OBJECTID":95,"REGIONAL_1":"OESTE","UNIDADE_1":"EMEB Profº Ranulpho Paes de Barros","ENDERECO_1":"Rua Dep. Celso Mendes Quintela, s/n Bairro Santa Isabel","X_1":-56.133829,"Y_1":-15.5993999,"LINK":"https://www.google.com/maps/search/?api=1&query=EMEB+Profº+Ranulpho+Paes+de+Barros%2C+Rua+Dep.+Celso+Mendes+Quintela%2C+s/n+Bairro+Santa+Isabel%2C+Cuiabá%2C+MT","NOMES_BAIRROS":"JARDIM SANTA ISABEL","CONTROLE_1":"REGIÃO OESTE"},"geometry":{"type":"Point","coordinates":[-56.133828999999878,-15.59939989999998]}},
{"type":"Feature","properties":{"OBJECTID":96,"REGIONAL_1":"OESTE","UNIDADE_1":"CEIC Sebastiao Tolomeu","ENDERECO_1":"Rua Clara Nunes, nº 200 Bairro Santa Isabel","X_1":-56.1322433,"Y_1":-15.5989418,"LINK":"https://www.google.com/maps/search/?api=1&query=CEIC+Sebastiao+Tolomeu%2C+Rua+Clara+Nunes%2C+nº+200+Bairro+Santa+Isabel%2C+Cuiabá%2C+MT","NOMES_BAIRROS":"JARDIM SANTA ISABEL","CONTROLE_1":"REGIÃO OESTE"},"geometry":{"type":"Point","coordinates":[-56.132243300000027,-15.59894179999992]}},
{"type":"Feature","properties":{"OBJECTID":97,"REGIONAL_1":"OESTE","UNIDADE_1":"EMEB Maria Eunice Duarte Barros ","ENDERECO_1":"Rua Dep. Celso Mendes Quintela, 356 Bairro Santa Isabel","X_1":-56.1328438,"Y_1":-15.5988377,"LINK":"https://www.google.com/maps/search/?api=1&query=EMEB+Maria+Eunice+Duarte+Barros%2C+Rua+Dep.+Celso+Mendes+Quintela%2C+356+Bairro+Santa+Isabel%2C+Cuiabá%2C+MT","NOMES_BAIRROS":"JARDIM SANTA ISABEL","CONTROLE_1":"REGIÃO OESTE"},"geometry":{"type":"Point","coordinates":[-56.132843799999989,-15.598837699999933]}},
{"type":"Feature","properties":{"OBJECTID":98,"REGIONAL_1":"LESTE","UNIDADE_1":"EMEB Dr. Orlando Nigro  ","ENDERECO_1":"Rua Mamoré, 229 Bairro Pedregal","X_1":-56.0699881,"Y_1":-15.5987849,"LINK":"https://www.google.com/maps/search/?api=1&query=EMEB+Dr.+Orlando+Nigro%2C+Rua+Mamoré%2C+229+Bairro+Pedregal%2C+Cuiabá%2C+MT","NOMES_BAIRROS":"PEDREGAL","CONTROLE_1":"REGIÃO LESTE"},"geometry":{"type":"Point","coordinates":[-56.069988099999989,-15.5987849]}},
{"type":"Feature","properties":{"OBJECTID":99,"REGIONAL_1":"LESTE","UNIDADE_1":"CEIC Benedita Dias Evangelista ","ENDERECO_1":"Rua da Paz, s/n Bairro Pedregal (ao lado da EMEB Dr. Orlando Nigro)","X_1":-56.0692437,"Y_1":-15.5985598,"LINK":"https://www.google.com/maps/search/?api=1&query=CEIC+Benedita+Dias+Evangelista%2C+Rua+da+Paz%2C+s/n+Bairro+Pedregal+(ao+lado+da+EMEB+Dr.+Orlando+Nigro)%2C+Cuiabá%2C+MT","NOMES_BAIRROS":"PEDREGAL","CONTROLE_1":"REGIÃO LESTE"},"geometry":{"type":"Point","coordinates":[-56.069243699999959,-15.598559799999862]}},
{"type":"Feature","properties":{"OBJECTID":100,"REGIONAL_1":"LESTE","UNIDADE_1":"CEIC Prof. Monserrat Ismênia de Moraes Borge","ENDERECO_1":"Rua 7 de Janeiro, Pedregal","X_1":-56.0746124,"Y_1":-15.5978205,"LINK":"https://www.google.com/maps/search/?api=1&query=CEIC+Prof.+Monserrat+Ismênia+de+Moraes+Borge%2C+Rua+7+de+Janeiro%2C+Pedregal%2C+Cuiabá%2C+MT","NOMES_BAIRROS":"PEDREGAL","CONTROLE_1":"REGIÃO LESTE"},"geometry":{"type":"Point","coordinates":[-56.074612399999978,-15.597820499999955]}},
{"type":"Feature","properties":{"OBJECTID":101,"REGIONAL_1":"LESTE","UNIDADE_1":"CEIC Rosângela Campos Vieira Passos","ENDERECO_1":"Rua 8 de Maio, nº 123 Bairro Pedregal","X_1":-56.0672393,"Y_1":-15.5976582,"LINK":"https://www.google.com/maps/search/?api=1&query=CEIC+Rosângela+Campos+Vieira+Passos%2C+Rua+8+de+Maio%2C+nº+123+Bairro+Pedregal%2C+Cuiabá%2C+MT","NOMES_BAIRROS":"PEDREGAL","CONTROLE_1":"REGIÃO LESTE"},"geometry":{"type":"Point","coordinates":[-56.067239299999926,-15.597658199999955]}},
{"type":"Feature","properties":{"OBJECTID":102,"REGIONAL_1":"LESTE","UNIDADE_1":"CEIC Dona Micaela Henrique de Souza Lima","ENDERECO_1":"Rua Américo Salgado, s/n Bairro Lixeira","X_1":-56.085365,"Y_1":-15.596662,"LINK":"https://www.google.com/maps/search/?api=1&query=CEIC+Dona+Micaela+Henrique+de+Souza+Lima%2C+Rua+Américo+Salgado%2C+s/n+Bairro+Lixeira%2C+Cuiabá%2C+MT","NOMES_BAIRROS":"DA LIXEIRA","CONTROLE_1":"REGIÃO LESTE"},"geometry":{"type":"Point","coordinates":[-56.085365,-15.596661999999867]}},
{"type":"Feature","properties":{"OBJECTID":103,"REGIONAL_1":"LESTE","UNIDADE_1":"EMEB Maria da Glória de Souza  ","ENDERECO_1":"Av. Bosque da Saúde, nº 146 Bairro Baú","X_1":-56.081209,"Y_1":-15.5913841,"LINK":"https://www.google.com/maps/search/?api=1&query=EMEB+Maria+da+Glória+de+Souza%2C+Av.+Bosque+da+Saúde%2C+nº+146+Bairro+Baú%2C+Cuiabá%2C+MT","NOMES_BAIRROS":"DO BAÚ","CONTROLE_1":"REGIÃO LESTE"},"geometry":{"type":"Point","coordinates":[-56.081209,-15.591384099999971]}},
{"type":"Feature","properties":{"OBJECTID":104,"REGIONAL_1":"LESTE","UNIDADE_1":"CEIC CAIC Eldorado","ENDERECO_1":"Ao lado da EMEB Professora Francisca Figeiredo Arruda Martins ","X_1":-56.0479234,"Y_1":-15.5887386,"LINK":"https://www.google.com/maps/search/?api=1&query=CEIC+CAIC+Eldorado%2C+Ao+lado+da+EMEB+Professora+Francisca+Figeiredo+Arruda+Martins%2C+Cuiabá%2C+MT","NOMES_BAIRROS":"JARDIM ELDORADO","CONTROLE_1":"REGIÃO LESTE"},"geometry":{"type":"Point","coordinates":[-56.0479234,-15.5887386]}},
{"type":"Feature","properties":{"OBJECTID":105,"REGIONAL_1":"LESTE","UNIDADE_1":"EMEB Profª Guilhermina de Figueiredo","ENDERECO_1":"Av. Gov. Dante Martins de Oliveira, s/n Bairro Carumbé","X_1":-56.0602564,"Y_1":-15.5886394,"LINK":"https://www.google.com/maps/search/?api=1&query=EMEB+Profª+Guilhermina+de+Figueiredo%2C+Av.+Gov.+Dante+Martins+de+Oliveira%2C+s/n+Bairro+Carumbé%2C+Cuiabá%2C+MT","NOMES_BAIRROS":"CARUMBÉ","CONTROLE_1":"REGIÃO LESTE"},"geometry":{"type":"Point","coordinates":[-56.060256400000014,-15.588639399999977]}},
{"type":"Feature","properties":{"OBJECTID":106,"REGIONAL_1":"LESTE","UNIDADE_1":"EMEB Professora Francisca Figeiredo Arruda Martins ","ENDERECO_1":"Bairro Chacára dos Pinheiros","X_1":-56.0474643,"Y_1":-15.5886036,"LINK":"https://www.google.com/maps/search/?api=1&query=EMEB+Professora+Francisca+Figeiredo+Arruda+Martins%2C+Bairro+Chacára+dos+Pinheiros%2C+Cuiabá%2C+MT","NOMES_BAIRROS":"JARDIM ELDORADO","CONTROLE_1":"REGIÃO LESTE"},"geometry":{"type":"Point","coordinates":[-56.047464299999945,-15.588603599999942]}},
{"type":"Feature","properties":{"OBJECTID":107,"REGIONAL_1":"OESTE","UNIDADE_1":"CEIC Espaço Livre ","ENDERECO_1":"Rua Carlos Gomes, nº 100 Bairro Araés","X_1":-56.0902108,"Y_1":-15.5879606,"LINK":"https://www.google.com/maps/search/?api=1&query=CEIC+Espaço+Livre%2C+Rua+Carlos+Gomes%2C+nº+100+Bairro+Araés%2C+Cuiabá%2C+MT","NOMES_BAIRROS":"DO ARAÉS","CONTROLE_1":"REGIÃO LESTE"},"geometry":{"type":"Point","coordinates":[-56.090210800000023,-15.58796059999986]}},
{"type":"Feature","properties":{"OBJECTID":108,"REGIONAL_1":"LESTE","UNIDADE_1":"EMEB Augusto Mário Vieira  ","ENDERECO_1":"Av. Gonçalo Antunes de Barros, nº 1556 Bairro Jardim Campo Verde","X_1":-56.0636667,"Y_1":-15.5875666,"LINK":"https://www.google.com/maps/search/?api=1&query=EMEB+Augusto+Mário+Vieira%2C+Av.+Gonçalo+Antunes+de+Barros%2C+nº+1556+Bairro+Jardim+Campo+Verde%2C+Cuiabá%2C+MT","NOMES_BAIRROS":"CAMPO VERDE","CONTROLE_1":"REGIÃO LESTE"},"geometry":{"type":"Point","coordinates":[-56.0636667,-15.587566599999946]}},
{"type":"Feature","properties":{"OBJECTID":109,"REGIONAL_1":"OESTE","UNIDADE_1":"EMEB Profº Ezequiel Pompeu Ribeiro de Siqueira ","ENDERECO_1":"Rua Manoel Lepoldino, 403 Bairro Araés","X_1":-56.0944411,"Y_1":-15.5856127,"LINK":"https://www.google.com/maps/search/?api=1&query=EMEB+Profº+Ezequiel+Pompeu+Ribeiro+de+Siqueira%2C+Rua+Manoel+Lepoldino%2C+403+Bairro+Araés%2C+Cuiabá%2C+MT","NOMES_BAIRROS":"DO ARAÉS","CONTROLE_1":"REGIÃO LESTE"},"geometry":{"type":"Point","coordinates":[-56.094441099999983,-15.585612700000013]}},
{"type":"Feature","properties":{"OBJECTID":110,"REGIONAL_1":"LESTE","UNIDADE_1":"EMEB José Luiz Borges Garcia ","ENDERECO_1":"Rua Professor Lorivandes Nunes Chaves, nº 699 Bairro Bela Vista","X_1":-56.0617898,"Y_1":-15.5853559,"LINK":"https://www.google.com/maps/search/?api=1&query=EMEB+José+Luiz+Borges+Garcia%2C+Rua+Professor+Lorivandes+Nunes+Chaves%2C+nº+699+Bairro+Bela+Vista%2C+Cuiabá%2C+MT","NOMES_BAIRROS":"DOM BOSCO","CONTROLE_1":"REGIÃO LESTE"},"geometry":{"type":"Point","coordinates":[-56.061789799999985,-15.585355899999911]}},
{"type":"Feature","properties":{"OBJECTID":111,"REGIONAL_1":"LESTE","UNIDADE_1":"EMEB 12 de Outubro","ENDERECO_1":"Rua G, nº 132 - Jardim Itamaraty","X_1":-56.0349419,"Y_1":-15.5853548,"LINK":"https://www.google.com/maps/search/?api=1&query=EMEB+12+de+Outubro%2C+Rua+G%2C+nº+132+-+Jardim+Itamaraty%2C+Cuiabá%2C+MT","NOMES_BAIRROS":"RESIDENCIAL ITAMARATI","CONTROLE_1":"REGIÃO LESTE"},"geometry":{"type":"Point","coordinates":[-56.034941899999978,-15.5853548]}},
{"type":"Feature","properties":{"OBJECTID":112,"REGIONAL_1":"OESTE","UNIDADE_1":"EMEB Juarez Sodré Farias   ","ENDERECO_1":"Rua João Carlos Pereira Leite, s/n Bairro Araés","X_1":-56.0896435,"Y_1":-15.5844078,"LINK":"https://www.google.com/maps/search/?api=1&query=EMEB+Juarez+Sodré+Farias%2C+Rua+João+Carlos+Pereira+Leite%2C+s/n+Bairro+Araés%2C+Cuiabá%2C+MT","NOMES_BAIRROS":"DO ARAÉS","CONTROLE_1":"REGIÃO LESTE"},"geometry":{"type":"Point","coordinates":[-56.089643500000022,-15.584407799999894]}},
{"type":"Feature","properties":{"OBJECTID":113,"REGIONAL_1":"LESTE","UNIDADE_1":"EMEB Jescelino José Reiners (SALAS ANEXAS) + EMEB Presidente Tancredo Neves (se faz necessário pois estão ocupando o mesmo prédio)","ENDERECO_1":"Rua Dourada, 199 Bairro Planato","X_1":-56.04187,"Y_1":-15.58412,"LINK":"https://www.google.com/maps/place/R.+Dourada,+199+-+Planalto,+Cuiab%C3%A1+-+MT,+78058-757/@-15.5843738,-56.0422691,129m/data=!3m1!1e3!4m15!1m8!3m7!1s0x939db0692d73b4a3:0xf8ed46fd465ac92!2sR.+Dourada,+199+-+Planalto,+Cuiab%C3%A1+-+MT,+78058-757!3b1!8m2!3d-15.5841527!4d-56.0418636!16s%2Fg%2F11v0_39144!3m5!1s0x939db0692d73b4a3:0xf8ed46fd465ac92!8m2!3d-15.5841527!4d-56.0418636!16s%2Fg%2F11v0_39144?entry=ttu&g_ep=EgoyMDI2MDMyMi4wIKXMDSoASAFQAw%3D%3D","NOMES_BAIRROS":"PLANALTO","CONTROLE_1":"REGIÃO LESTE"},"geometry":{"type":"Point","coordinates":[-56.04187,-15.58412]}},
{"type":"Feature","properties":{"OBJECTID":114,"REGIONAL_1":"LESTE","UNIDADE_1":"CEIC José Luiz Borges Garcia","ENDERECO_1":"Rua Parimá, nº 186 Bairro Planalto","X_1":-56.0348561,"Y_1":-15.5832216,"LINK":"https://www.google.com/maps/search/?api=1&query=CEIC+José+Luiz+Borges+Garcia%2C+Rua+Parimá%2C+nº+186+Bairro+Planalto%2C+Cuiabá%2C+MT","NOMES_BAIRROS":"PLANALTO","CONTROLE_1":"REGIÃO LESTE"},"geometry":{"type":"Point","coordinates":[-56.034856100000013,-15.583221599999888]}},
{"type":"Feature","properties":{"OBJECTID":115,"REGIONAL_1":"LESTE","UNIDADE_1":"EMEB Prof.ª Elza Luiza Esteves ","ENDERECO_1":"Av. Senegal, s/n Bairro Canjica","X_1":-56.0752136,"Y_1":-15.5829284,"LINK":"https://www.google.com/maps/search/?api=1&query=EMEB+Prof.ª+Elza+Luiza+Esteves%2C+Av.+Senegal%2C+s/n+Bairro+Canjica%2C+Cuiabá%2C+MT","NOMES_BAIRROS":"CANJICA","CONTROLE_1":"REGIÃO LESTE"},"geometry":{"type":"Point","coordinates":[-56.075213599999984,-15.582928399999957]}},
{"type":"Feature","properties":{"OBJECTID":116,"REGIONAL_1":"LESTE","UNIDADE_1":"EMEB Quintino Pereira de Freitas ","ENDERECO_1":"Rua Padre Francisco Reiners, 247. Bairro Canjica (Residencial Terra Nova)","X_1":-56.0730648,"Y_1":-15.5825575,"LINK":"https://www.google.com/maps/search/?api=1&query=EMEB+Quintino+Pereira+de+Freitas%2C+Rua+Padre+Francisco+Reiners%2C+247.+Bairro+Canjica+(Residencial+Terra+Nova)%2C+Cuiabá%2C+MT","NOMES_BAIRROS":"TERRA NOVA","CONTROLE_1":"REGIÃO LESTE"},"geometry":{"type":"Point","coordinates":[-56.0730648,-15.5825575]}},
{"type":"Feature","properties":{"OBJECTID":117,"REGIONAL_1":"OESTE","UNIDADE_1":"CEIC Macaria Militona de Santana","ENDERECO_1":"Rua Peru, s/n Bairro Ribeirão da Ponte","X_1":-56.11557,"Y_1":-15.5820172,"LINK":"https://www.google.com/maps/search/?api=1&query=CEIC+Macaria+Militona+de+Santana%2C+Rua+Peru%2C+s/n+Bairro+Ribeirão+da+Ponte%2C+Cuiabá%2C+MT","NOMES_BAIRROS":"RIBEIRÃO DA PONTE","CONTROLE_1":"REGIÃO OESTE"},"geometry":{"type":"Point","coordinates":[-56.11557,-15.5820172]}},
{"type":"Feature","properties":{"OBJECTID":118,"REGIONAL_1":"OESTE","UNIDADE_1":"CEIC Tertuliana Maria (Mãe Nhara) ","ENDERECO_1":"Bairro Alvorada (próx. A TV Gazeta)","X_1":-56.0854777,"Y_1":-15.5816809,"LINK":"https://www.google.com/maps/search/?api=1&query=CEIC+Tertuliana+Maria+(Mãe+Nhara)%2C+Bairro+Alvorada+(próx.+A+TV+Gazeta)%2C+Cuiabá%2C+MT","NOMES_BAIRROS":"ALVORADA","CONTROLE_1":"REGIÃO OESTE"},"geometry":{"type":"Point","coordinates":[-56.085477699999956,-15.581680899999867]}},
{"type":"Feature","properties":{"OBJECTID":119,"REGIONAL_1":"LESTE","UNIDADE_1":"EMEB Silvino Leite de Arruda ","ENDERECO_1":"Rua Neblina, 176 Bairro Planalto","X_1":-56.0374723,"Y_1":-15.5814069,"LINK":"https://www.google.com/maps/search/?api=1&query=EMEB+Silvino+Leite+de+Arruda%2C+Rua+Neblina%2C+176+Bairro+Planalto%2C+Cuiabá%2C+MT","NOMES_BAIRROS":"PLANALTO","CONTROLE_1":"REGIÃO LESTE"},"geometry":{"type":"Point","coordinates":[-56.037472299999934,-15.581406899999934]}},
{"type":"Feature","properties":{"OBJECTID":120,"REGIONAL_1":"NORTE","UNIDADE_1":"CEIC Josefa da Silva Parente ","ENDERECO_1":"Av. Vereador Juliano Costa Marques, s/n Bairro Bela Vista","X_1":-56.0621284,"Y_1":-15.580349,"LINK":"https://www.google.com/maps/search/?api=1&query=CEIC+Josefa+da+Silva+Parente%2C+Av.+Vereador+Juliano+Costa+Marques%2C+s/n+Bairro+Bela+Vista%2C+Cuiabá%2C+MT","NOMES_BAIRROS":"MORADA DO OURO","CONTROLE_1":"REGIÃO NORTE"},"geometry":{"type":"Point","coordinates":[-56.0621284,-15.580349]}},
{"type":"Feature","properties":{"OBJECTID":121,"REGIONAL_1":"NORTE","UNIDADE_1":"EMEB Madre Marta Cerutti","ENDERECO_1":"Av. Juliano da Costa Marques, s/n Bairro Bela Vista (ao lado do CEIC Josefa da Silva Parente)","X_1":-56.0633471,"Y_1":-15.5802411,"LINK":"https://www.google.com/maps/search/?api=1&query=EMEB+Madre+Marta+Cerutti%2C+Av.+Juliano+da+Costa+Marques%2C+s/n+Bairro+Bela+Vista+(ao+lado+do+CEIC+Josefa+da+Silva+Parente)%2C+Cuiabá%2C+MT","NOMES_BAIRROS":"MORADA DO OURO","CONTROLE_1":"REGIÃO NORTE"},"geometry":{"type":"Point","coordinates":[-56.06334709999993,-15.580241100000023]}},
{"type":"Feature","properties":{"OBJECTID":122,"REGIONAL_1":"OESTE","UNIDADE_1":"EMEB Mal. Cândido Mariano da Silva Rondon    ","ENDERECO_1":"Rua Piratininga, s/n Bairro Alvorada cep: 78.048-630","X_1":-56.0811535,"Y_1":-15.579743,"LINK":"https://www.google.com/maps/search/?api=1&query=EMEB+Mal.+Cândido+Mariano+da+Silva+Rondon%2C+Rua+Piratininga%2C+s/n+Bairro+Alvorada+cep:+78.048-630%2C+Cuiabá%2C+MT","NOMES_BAIRROS":"ALVORADA","CONTROLE_1":"REGIÃO OESTE"},"geometry":{"type":"Point","coordinates":[-56.081153500000028,-15.579743]}},
{"type":"Feature","properties":{"OBJECTID":123,"REGIONAL_1":"LESTE","UNIDADE_1":"CEIC Edna Catharina Pierri Ricci","ENDERECO_1":"Rua Princesa Diana, s/n Bairro Altos da Serra (fica ao lado da EMEB Celina Fialho Bezerra)","X_1":-56.0237134,"Y_1":-15.5793469,"LINK":"https://www.google.com/maps/search/?api=1&query=CEIC+Edna+Catharina+Pierri+Ricci%2C+Rua+Princesa+Diana%2C+s/n+Bairro+Altos+da+Serra+(fica+ao+lado+da+EMEB+Celina+Fialho+Bezerra)%2C+Cuiabá%2C+MT","NOMES_BAIRROS":"ÁREAS DE EXPANSÃO URBANA - REGIÃO LESTE","CONTROLE_1":"REGIÃO LESTE"},"geometry":{"type":"Point","coordinates":[-56.023713399999963,-15.579346900000019]}},
{"type":"Feature","properties":{"OBJECTID":124,"REGIONAL_1":"LESTE","UNIDADE_1":"EMEB Jescelino José Reiners","ENDERECO_1":"Rua Goias, Bairro Novo Horizonte","X_1":-56.0322,"Y_1":-15.57934,"LINK":"https://www.google.com/maps/search/?api=1&query=EMEB+Jescelino+José+Reiners%2C+Rua+Goias%2C+Bairro+Novo+Horizonte%2C+Cuiabá%2C+MT","NOMES_BAIRROS":"NOVO HORIZONTE","CONTROLE_1":"REGIÃO LESTE"},"geometry":{"type":"Point","coordinates":[-56.0322,-15.579339999999888]}},
{"type":"Feature","properties":{"OBJECTID":125,"REGIONAL_1":"LESTE","UNIDADE_1":"EMEB Celina Fialho Bezerra ","ENDERECO_1":"Rua Princesa Diana, s/n Bairro Altos da Serra","X_1":-56.0240638,"Y_1":-15.5790953,"LINK":"https://www.google.com/maps/search/?api=1&query=EMEB+Celina+Fialho+Bezerra%2C+Rua+Princesa+Diana%2C+s/n+Bairro+Altos+da+Serra%2C+Cuiabá%2C+MT","NOMES_BAIRROS":"ÁREAS DE EXPANSÃO URBANA - REGIÃO LESTE","CONTROLE_1":"REGIÃO LESTE"},"geometry":{"type":"Point","coordinates":[-56.024063800000022,-15.579095299999892]}},
{"type":"Feature","properties":{"OBJECTID":126,"REGIONAL_1":"LESTE","UNIDADE_1":"CMEI Regina Pia Padilla de Borbon Neves","ENDERECO_1":"Rua Princesa Diana, s/n Bairro Altos da Serra (fica ao lado da EMEB Celina Fialho Bezerra)","X_1":-56.024187,"Y_1":-15.5788235,"LINK":"https://www.google.com/maps/search/?api=1&query=CMEI+Regina+Pia+Padilla+de+Borbon+Neves%2C+Rua+Princesa+Diana%2C+s/n+Bairro+Altos+da+Serra+(fica+ao+lado+da+EMEB+Celina+Fialho+Bezerra)%2C+Cuiabá%2C+MT","NOMES_BAIRROS":"ÁREAS DE EXPANSÃO URBANA - REGIÃO LESTE","CONTROLE_1":"REGIÃO LESTE"},"geometry":{"type":"Point","coordinates":[-56.024187,-15.578823499999942]}},
{"type":"Feature","properties":{"OBJECTID":127,"REGIONAL_1":"LESTE","UNIDADE_1":"EMEB Irmã Maria Betty de Souza Pires ","ENDERECO_1":"Rua Andradina, nº 99 Bairro Novo Mato Grosso","X_1":-56.0391018,"Y_1":-15.5787586,"LINK":"https://www.google.com/maps/search/?api=1&query=EMEB+Irmã+Maria+Betty+de+Souza+Pires%2C+Rua+Andradina%2C+nº+99+Bairro+Novo+Mato+Grosso%2C+Cuiabá%2C+MT","NOMES_BAIRROS":"NOVO MATO GROSSO","CONTROLE_1":"REGIÃO LESTE"},"geometry":{"type":"Point","coordinates":[-56.039101800000026,-15.578758600000015]}},
{"type":"Feature","properties":{"OBJECTID":128,"REGIONAL_1":"OESTE","UNIDADE_1":"EMEB Profª Esmeralda de Campos Fontes ","ENDERECO_1":"Rua Bolívia, 365 Bairro Riberão da Ponte","X_1":-56.11792,"Y_1":-15.57865,"LINK":"https://www.google.com/maps/search/?api=1&query=EMEB+Profª+Esmeralda+de+Campos+Fontes%2C+Rua+Bolívia%2C+365+Bairro+Riberão+da+Ponte%2C+Cuiabá%2C+MT","NOMES_BAIRROS":"RIBEIRÃO DA PONTE","CONTROLE_1":"REGIÃO OESTE"},"geometry":{"type":"Point","coordinates":[-56.11792,-15.57865]}},
{"type":"Feature","properties":{"OBJECTID":129,"REGIONAL_1":"LESTE","UNIDADE_1":"CEIC Risoleta Neves","ENDERECO_1":"Av. Governador Dante Martins de Oliveira (próx. Ao terminal do CPA 3)","X_1":-56.034864,"Y_1":-15.5758687,"LINK":"https://www.google.com/maps/search/?api=1&query=CEIC+Risoleta+Neves%2C+Av.+Governador+Dante+Martins+de+Oliveira+(próx.+Ao+terminal+do+CPA+3)%2C+Cuiabá%2C+MT","NOMES_BAIRROS":"MORADA DA SERRA","CONTROLE_1":"REGIÃO NORTE"},"geometry":{"type":"Point","coordinates":[-56.034864,-15.5758687]}},
{"type":"Feature","properties":{"OBJECTID":130,"REGIONAL_1":"NORTE","UNIDADE_1":"CEIC João Batista Scalabrini","ENDERECO_1":"Rua São José da Serra, Quadra 12, Lote 06 Bairro Tancredo Neves","X_1":-56.0504309,"Y_1":-15.5722315,"LINK":"https://www.google.com/maps/search/?api=1&query=CEIC+João+Batista+Scalabrini%2C+Rua+São+José+da+Serra%2C+Quadra+12%2C+Lote+06+Bairro+Tancredo+Neves%2C+Cuiabá%2C+MT","NOMES_BAIRROS":"MORADA DA SERRA","CONTROLE_1":"REGIÃO NORTE"},"geometry":{"type":"Point","coordinates":[-56.050430899999924,-15.572231499999873]}},
{"type":"Feature","properties":{"OBJECTID":131,"REGIONAL_1":"NORTE","UNIDADE_1":"EMEB Cel. Octayde Jorge da Silva","ENDERECO_1":"Rua Juara, Qd. 15 Lt. 01 Bairro Tancredo Neves (ao lado do CEIC Joao Batista Scalabrini)","X_1":-56.0510293,"Y_1":-15.5718883,"LINK":"https://www.google.com/maps/search/?api=1&query=EMEB+Cel.+Octayde+Jorge+da+Silva%2C+Rua+Juara%2C+Qd.+15+Lt.+01+Bairro+Tancredo+Neves+(ao+lado+do+CEIC+Joao+Batista+Scalabrini)%2C+Cuiabá%2C+MT","NOMES_BAIRROS":"MORADA DA SERRA","CONTROLE_1":"REGIÃO NORTE"},"geometry":{"type":"Point","coordinates":[-56.051029299999982,-15.571888299999898]}},
{"type":"Feature","properties":{"OBJECTID":132,"REGIONAL_1":"LESTE","UNIDADE_1":"EMEB Lisaldo Farias Sodré (antiga EMEB 8 de Abril)","ENDERECO_1":"Av. Gonçalo Antunes de Barros, nº 2.859 Bairro Bela Vista","X_1":-56.0773,"Y_1":-15.5717,"LINK":"https://www.google.com/maps/search/?api=1&query=EMEB+Lisaldo+Farias+Sodré+(antiga+EMEB+8+de+Abril)%2C+Av.+Gonçalo+Antunes+de+Barros%2C+nº+2.859+Bairro+Bela+Vista%2C+Cuiabá%2C+MT","NOMES_BAIRROS":"CENTRO POLÍTICO ADMINISTRATIVO","CONTROLE_1":"REGIÃO NORTE"},"geometry":{"type":"Point","coordinates":[-56.0773,-15.5717]}},
{"type":"Feature","properties":{"OBJECTID":133,"REGIONAL_1":"NORTE","UNIDADE_1":"CMEI Joana Mont´Serrat Spindola","ENDERECO_1":"Rua Vinte e Cinco, s/n Setor V Bairro CPA III","X_1":-56.0362863,"Y_1":-15.5715291,"LINK":"https://www.google.com/maps/search/?api=1&query=CMEI+Joana+Mont´Serrat+Spindola%2C+Rua+Vinte+e+Cinco%2C+s/n+Setor+V+Bairro+CPA+III%2C+Cuiabá%2C+MT","NOMES_BAIRROS":"MORADA DA SERRA","CONTROLE_1":"REGIÃO NORTE"},"geometry":{"type":"Point","coordinates":[-56.036286300000029,-15.571529100000021]}},
{"type":"Feature","properties":{"OBJECTID":134,"REGIONAL_1":"NORTE","UNIDADE_1":"CEIC Santa Inês – CPA ","ENDERECO_1":"Próx ao CMEI Joana Mont´Serrat Spindola","X_1":-56.0357894,"Y_1":-15.5710609,"LINK":"https://www.google.com/maps/search/?api=1&query=CEIC+Santa+Inês+–+CPA%2C+Próx+ao+CMEI+Joana+Mont´Serrat+Spindola%2C+Cuiabá%2C+MT","NOMES_BAIRROS":"MORADA DA SERRA","CONTROLE_1":"REGIÃO NORTE"},"geometry":{"type":"Point","coordinates":[-56.035789399999942,-15.57106090000002]}},
{"type":"Feature","properties":{"OBJECTID":135,"REGIONAL_1":"NORTE","UNIDADE_1":"CEIC Naídes Rodrigues R. da Cruz","ENDERECO_1":"Rua 52, Quadra 36, s/n Setor III Bairro CPA III","X_1":-56.0458738,"Y_1":-15.5702575,"LINK":"https://www.google.com/maps/search/?api=1&query=CEIC+Naídes+Rodrigues+R.+da+Cruz%2C+Rua+52%2C+Quadra+36%2C+s/n+Setor+III+Bairro+CPA+III%2C+Cuiabá%2C+MT","NOMES_BAIRROS":"MORADA DA SERRA","CONTROLE_1":"REGIÃO NORTE"},"geometry":{"type":"Point","coordinates":[-56.045873799999981,-15.570257499999968]}},
{"type":"Feature","properties":{"OBJECTID":136,"REGIONAL_1":"NORTE","UNIDADE_1":"EMEB Ten. Octacilio Sebastião da Cruz","ENDERECO_1":"Rua 46, Qd. 14, Lt. 31 Bairro CPA III","X_1":-56.0422697,"Y_1":-15.5696574,"LINK":"https://www.google.com/maps/search/?api=1&query=EMEB+Ten.+Octacilio+Sebastião+da+Cruz%2C+Rua+46%2C+Qd.+14%2C+Lt.+31+Bairro+CPA+III%2C+Cuiabá%2C+MT","NOMES_BAIRROS":"MORADA DA SERRA","CONTROLE_1":"REGIÃO NORTE"},"geometry":{"type":"Point","coordinates":[-56.04226970000002,-15.569657399999983]}},
{"type":"Feature","properties":{"OBJECTID":137,"REGIONAL_1":"OESTE","UNIDADE_1":"EMEB Gláucia Maria Borges Garcia ","ENDERECO_1":"Av. Afonso Pena, nº 2.220 Bairro Despraiado","X_1":-56.0972484,"Y_1":-15.5687405,"LINK":"https://www.google.com/maps/search/?api=1&query=EMEB+Gláucia+Maria+Borges+Garcia%2C+Av.+Afonso+Pena%2C+nº+2.220+Bairro+Despraiado%2C+Cuiabá%2C+MT","NOMES_BAIRROS":"DESPRAIADO","CONTROLE_1":"REGIÃO OESTE"},"geometry":{"type":"Point","coordinates":[-56.097248400000012,-15.568740499999933]}},
{"type":"Feature","properties":{"OBJECTID":138,"REGIONAL_1":"LESTE","UNIDADE_1":"Creche João Crisostomo de Figueiredo","ENDERECO_1":"Rua Bakairi, Quadra 25, Lote 20, Bairro Dr. Fábio I","X_1":-56.0253483,"Y_1":-15.5683571,"LINK":"https://www.google.com/maps/search/?api=1&query=Creche+João+Crisostomo+de+Figueiredo%2C+Rua+Bakairi%2C+Quadra+25%2C+Lote+20%2C+Bairro+Dr.+Fábio+I%2C+Cuiabá%2C+MT","NOMES_BAIRROS":"ÁREAS DE EXPANSÃO URBANA - REGIÃO LESTE","CONTROLE_1":"REGIÃO LESTE"},"geometry":{"type":"Point","coordinates":[-56.025348299999962,-15.568357100000014]}},
{"type":"Feature","properties":{"OBJECTID":139,"REGIONAL_1":"OESTE","UNIDADE_1":"EMEB Nossa Senhora Aparecida","ENDERECO_1":"Rua Frei Quirino, 222. Bairro Colorado","X_1":-56.1170379,"Y_1":-15.5667386,"LINK":"https://www.google.com/maps/search/?api=1&query=EMEB+Nossa+Senhora+Aparecida%2C+Rua+Frei+Quirino%2C+222.+Bairro+Colorado%2C+Cuiabá%2C+MT","NOMES_BAIRROS":"NOVO COLORADO","CONTROLE_1":"REGIÃO OESTE"},"geometry":{"type":"Point","coordinates":[-56.117037900000014,-15.566738599999951]}},
{"type":"Feature","properties":{"OBJECTID":140,"REGIONAL_1":"ENTIDADE FILANTRÓPICA","UNIDADE_1":"Associação Beneficente e Sociedade Menino Jesus","ENDERECO_1":"Rua24, Quadra 40, Lote 01 - Bairro CPA IV - 2ª etapa ","X_1":-56.029192,"Y_1":-15.5662721,"LINK":"https://www.google.com/maps/search/?api=1&query=Associação+Beneficente+e+Sociedade+Menino+Jesus%2C+Rua24%2C+Quadra+40%2C+Lote+01+-+Bairro+CPA+IV+-+2ª+etapa%2C+Cuiabá%2C+MT","NOMES_BAIRROS":"MORADA DA SERRA","CONTROLE_1":"REGIÃO NORTE"},"geometry":{"type":"Point","coordinates":[-56.029192,-15.5662721]}},
{"type":"Feature","properties":{"OBJECTID":141,"REGIONAL_1":"NORTE","UNIDADE_1":"CEIC Maria Eunice Duarte Barros ","ENDERECO_1":"Rua G, Quadra 14, Lote 03, Setor A Centro Político Administrativo","X_1":-56.0683926,"Y_1":-15.5659547,"LINK":"https://www.google.com/maps/search/?api=1&query=CEIC+Maria+Eunice+Duarte+Barros%2C+Rua+G%2C+Quadra+14%2C+Lote+03%2C+Setor+A+Centro+Político+Administrativo%2C+Cuiabá%2C+MT","NOMES_BAIRROS":"CENTRO POLÍTICO ADMINISTRATIVO","CONTROLE_1":"REGIÃO NORTE"},"geometry":{"type":"Point","coordinates":[-56.068392599999981,-15.56595470000002]}},
{"type":"Feature","properties":{"OBJECTID":142,"REGIONAL_1":"LESTE","UNIDADE_1":"EMEB Dr. Fábio Firmino Leite ","ENDERECO_1":"Rua Bahia, Qd. 58, s/n Bairro Dr. Fábio II","X_1":-56.01799,"Y_1":-15.5653417,"LINK":"https://www.google.com/maps/search/?api=1&query=EMEB+Dr.+Fábio+Firmino+Leite%2C+Rua+Bahia%2C+Qd.+58%2C+s/n+Bairro+Dr.+Fábio+II%2C+Cuiabá%2C+MT","NOMES_BAIRROS":"ÁREAS DE EXPANSÃO URBANA - REGIÃO LESTE","CONTROLE_1":"REGIÃO LESTE"},"geometry":{"type":"Point","coordinates":[-56.01799,-15.565341699999919]}},
{"type":"Feature","properties":{"OBJECTID":143,"REGIONAL_1":"OESTE","UNIDADE_1":"CEIC Renisea G. Barua","ENDERECO_1":"Rua C, Quadra 05, s/n Cohab Vila Ral, Bairro Despraiado","X_1":-56.0952589,"Y_1":-15.5649572,"LINK":"https://www.google.com/maps/search/?api=1&query=CEIC+Renisea+G.+Barua%2C+Rua+C%2C+Quadra+05%2C+s/n+Cohab+Vila+Ral%2C+Bairro+Despraiado%2C+Cuiabá%2C+MT","NOMES_BAIRROS":"DESPRAIADO","CONTROLE_1":"REGIÃO OESTE"},"geometry":{"type":"Point","coordinates":[-56.095258899999976,-15.564957199999924]}},
{"type":"Feature","properties":{"OBJECTID":144,"REGIONAL_1":"OESTE","UNIDADE_1":"CEIC Francisco Santana ","ENDERECO_1":"Rua Orivaldo M. de Souza, s/n Bairro Ribeirão do Lipa","X_1":-56.1082533,"Y_1":-15.5639477,"LINK":"https://www.google.com/maps/search/?api=1&query=CEIC+Francisco+Santana%2C+Rua+Orivaldo+M.+de+Souza%2C+s/n+Bairro+Ribeirão+do+Lipa%2C+Cuiabá%2C+MT","NOMES_BAIRROS":"RIBEIRÃO DO LIPA","CONTROLE_1":"REGIÃO OESTE"},"geometry":{"type":"Point","coordinates":[-56.1082533,-15.563947699999972]}},
{"type":"Feature","properties":{"OBJECTID":145,"REGIONAL_1":"LESTE","UNIDADE_1":"EMEB Dejani Ribeiro Campos","ENDERECO_1":"Bairro Dr. Fábio","X_1":-56.0153701,"Y_1":-15.5634929,"LINK":"https://www.google.com/maps/search/?api=1&query=EMEB+Dejani+Ribeiro+Campos%2C+Bairro+Dr.+Fábio%2C+Cuiabá%2C+MT","NOMES_BAIRROS":"ÁREAS DE EXPANSÃO URBANA - REGIÃO LESTE","CONTROLE_1":"REGIÃO LESTE"},"geometry":{"type":"Point","coordinates":[-56.015370099999927,-15.563492899999915]}},
{"type":"Feature","properties":{"OBJECTID":146,"REGIONAL_1":"OESTE","UNIDADE_1":"CEIC Maria de Figueiredo Nunes","ENDERECO_1":"Rua Frei Quirino, 225. Bairro Colorado","X_1":-56.1162555,"Y_1":-15.5633839,"LINK":"https://www.google.com/maps/search/?api=1&query=CEIC+Maria+de+Figueiredo+Nunes%2C+Rua+Frei+Quirino%2C+225.+Bairro+Colorado%2C+Cuiabá%2C+MT","NOMES_BAIRROS":"NOVO COLORADO","CONTROLE_1":"REGIÃO OESTE"},"geometry":{"type":"Point","coordinates":[-56.116255499999966,-15.563383900000019]}},
{"type":"Feature","properties":{"OBJECTID":147,"REGIONAL_1":"NORTE","UNIDADE_1":"CMEI Nevio Lotufo","ENDERECO_1":"Rua Nove, Quadra 58, s/n Bairro Centro América ","X_1":-56.0600528,"Y_1":-15.5628497,"LINK":"https://www.google.com/maps/search/?api=1&query=CMEI+Nevio+Lotufo%2C+Rua+Nove%2C+Quadra+58%2C+s/n+Bairro+Centro+América%2C+Cuiabá%2C+MT","NOMES_BAIRROS":"CENTRO POLÍTICO ADMINISTRATIVO","CONTROLE_1":"REGIÃO NORTE"},"geometry":{"type":"Point","coordinates":[-56.06005279999988,-15.562849699999958]}},
{"type":"Feature","properties":{"OBJECTID":148,"REGIONAL_1":"OESTE","UNIDADE_1":"EMEB Maria Tomich Monteiro da Silva ","ENDERECO_1":"Av. Mário Palma, nº 30 Bairro Ribeirão do Lipa","X_1":-56.1130447,"Y_1":-15.5614318,"LINK":"https://www.google.com/maps/search/?api=1&query=EMEB+Maria+Tomich+Monteiro+da+Silva%2C+Av.+Mário+Palma%2C+nº+30+Bairro+Ribeirão+do+Lipa%2C+Cuiabá%2C+MT","NOMES_BAIRROS":"NOVO COLORADO","CONTROLE_1":"REGIÃO OESTE"},"geometry":{"type":"Point","coordinates":[-56.113044699999932,-15.56143179999998]}},
{"type":"Feature","properties":{"OBJECTID":149,"REGIONAL_1":"NORTE","UNIDADE_1":"CEIC Inocencio Leocadio da Rosa","ENDERECO_1":"Rua F, s/n Bairro Residencial Paiaguás","X_1":-56.0829322,"Y_1":-15.5601928,"LINK":"https://www.google.com/maps/search/?api=1&query=CEIC+Inocencio+Leocadio+da+Rosa%2C+Rua+F%2C+s/n+Bairro+Residencial+Paiaguás%2C+Cuiabá%2C+MT","NOMES_BAIRROS":"PAIAGUÁS","CONTROLE_1":"REGIÃO NORTE"},"geometry":{"type":"Point","coordinates":[-56.082932200000016,-15.560192799999982]}},
{"type":"Feature","properties":{"OBJECTID":150,"REGIONAL_1":"NORTE","UNIDADE_1":"CMEI Antonio Marcos Ruzzene Balbino","ENDERECO_1":"Av. Paiaguás, 371, Bairro Residencial Paiaguás","X_1":-56.0770186,"Y_1":-15.5599785,"LINK":"https://www.google.com/maps/search/?api=1&query=CMEI+Antonio+Marcos+Ruzzene+Balbino%2C+Av.+Paiaguás%2C+371%2C+Bairro+Residencial+Paiaguás%2C+Cuiabá%2C+MT","NOMES_BAIRROS":"CENTRO POLÍTICO ADMINISTRATIVO","CONTROLE_1":"REGIÃO NORTE"},"geometry":{"type":"Point","coordinates":[-56.077018599999974,-15.5599785]}},
{"type":"Feature","properties":{"OBJECTID":151,"REGIONAL_1":"NORTE","UNIDADE_1":"CMEI Maria Conceição Oliveira de Souza","ENDERECO_1":"Rua 153, s/n Bairro CPA IV","X_1":-56.0297799,"Y_1":-15.5597694,"LINK":"https://www.google.com/maps/search/?api=1&query=CMEI+Maria+Conceição+Oliveira+de+Souza%2C+Rua+153%2C+s/n+Bairro+CPA+IV%2C+Cuiabá%2C+MT","NOMES_BAIRROS":"MORADA DA SERRA","CONTROLE_1":"REGIÃO NORTE"},"geometry":{"type":"Point","coordinates":[-56.0297799,-15.559769399999936]}},
{"type":"Feature","properties":{"OBJECTID":152,"REGIONAL_1":"NORTE","UNIDADE_1":"EMEB Maria Lucila da Silva Barros ","ENDERECO_1":"Rua Alberto Martins, nº 90 Bairro Jardim Ubirajara","X_1":-56.0908312,"Y_1":-15.5593817,"LINK":"https://www.google.com/maps/search/?api=1&query=EMEB+Maria+Lucila+da+Silva+Barros%2C+Rua+Alberto+Martins%2C+nº+90+Bairro+Jardim+Ubirajara%2C+Cuiabá%2C+MT","NOMES_BAIRROS":"JARDIM UBIRAJARA","CONTROLE_1":"REGIÃO OESTE"},"geometry":{"type":"Point","coordinates":[-56.090831199999911,-15.559381700000017]}},
{"type":"Feature","properties":{"OBJECTID":153,"REGIONAL_1":"NORTE","UNIDADE_1":"EMEB Profº Firmo Jose Rodrigues","ENDERECO_1":"Av. Principal, s/n Bairro Três Barras","X_1":-56.0254273,"Y_1":-15.5581946,"LINK":"https://www.google.com/maps/search/?api=1&query=EMEB+Profº+Firmo+Jose+Rodrigues%2C+Av.+Principal%2C+s/n+Bairro+Três+Barras%2C+Cuiabá%2C+MT","NOMES_BAIRROS":"TRÊS BARRAS","CONTROLE_1":"REGIÃO NORTE"},"geometry":{"type":"Point","coordinates":[-56.025427299999933,-15.558194599999922]}},
{"type":"Feature","properties":{"OBJECTID":154,"REGIONAL_1":"NORTE","UNIDADE_1":"CMEI Prefeito Dante de Oliveira","ENDERECO_1":"Rua Vinte e Nove, s/n Bairro Três Barras (ao lado da EMEB Profº Firmo Jose Rodrigues)","X_1":-56.0253374,"Y_1":-15.5577288,"LINK":"https://www.google.com/maps/search/?api=1&query=CMEI+Prefeito+Dante+de+Oliveira%2C+Rua+Vinte+e+Nove%2C+s/n+Bairro+Três+Barras+(ao+lado+da+EMEB+Profº+Firmo+Jose+Rodrigues)%2C+Cuiabá%2C+MT","NOMES_BAIRROS":"TRÊS BARRAS","CONTROLE_1":"REGIÃO NORTE"},"geometry":{"type":"Point","coordinates":[-56.025337399999955,-15.5577288]}},
{"type":"Feature","properties":{"OBJECTID":155,"REGIONAL_1":"NORTE","UNIDADE_1":"CEIC Wilmon Ferreira De Souza","ENDERECO_1":"Rua Treze, Quadra 23, nº 220 Bairro Três Barras (nos fundos da EMEB Profº Firmo Jose Rodrigues)","X_1":-56.025802,"Y_1":-15.5569896,"LINK":"https://www.google.com/maps/search/?api=1&query=CEIC+Wilmon+Ferreira+De+Souza%2C+Rua+Treze%2C+Quadra+23%2C+nº+220+Bairro+Três+Barras+(nos+fundos+da+EMEB+Profº+Firmo+Jose+Rodrigues)%2C+Cuiabá%2C+MT","NOMES_BAIRROS":"TRÊS BARRAS","CONTROLE_1":"REGIÃO NORTE"},"geometry":{"type":"Point","coordinates":[-56.025802,-15.556989599999952]}},
{"type":"Feature","properties":{"OBJECTID":156,"REGIONAL_1":"ENTIDADE FILANTRÓPICA","UNIDADE_1":"Clube de Mães Raios de Sol","ENDERECO_1":"Rua Alenquer, s/nº - Bairro CPAI (ao lado do antigo Modelo)","X_1":-56.05350003,"Y_1":-15.55589526,"LINK":"https://www.google.com/maps/search/?api=1&query=Clube+de+Mães+Raios+de+Sol%2C+Rua+Alenquer%2C+s/nº+-+Bairro+CPAI+(ao+lado+do+antigo+Modelo)%2C+Cuiabá%2C+MT","NOMES_BAIRROS":"MORADA DA SERRA","CONTROLE_1":"REGIÃO NORTE"},"geometry":{"type":"Point","coordinates":[-56.05350003,-15.55589526]}},
{"type":"Feature","properties":{"OBJECTID":157,"REGIONAL_1":"NORTE","UNIDADE_1":"CEIC Nasla Joaquim Aschar","ENDERECO_1":"Av. Historiador Rubens de Mendonça, nº 5.885 Bairro CPA I","X_1":-56.0564442,"Y_1":-15.5523873,"LINK":"https://www.google.com/maps/search/?api=1&query=CEIC+Nasla+Joaquim+Aschar%2C+Av.+Historiador+Rubens+de+Mendonça%2C+nº+5.885+Bairro+CPA+I%2C+Cuiabá%2C+MT","NOMES_BAIRROS":"CENTRO POLÍTICO ADMINISTRATIVO","CONTROLE_1":"REGIÃO NORTE"},"geometry":{"type":"Point","coordinates":[-56.056444199999987,-15.552387300000021]}},
{"type":"Feature","properties":{"OBJECTID":158,"REGIONAL_1":"ENTIDADE FILANTRÓPICA","UNIDADE_1":"Obras Sociais Vianna de Carvalho","ENDERECO_1":"Rua 21, Quadra 08, s/nº - Bairro Jardim Florianópolis","X_1":-56.0828325,"Y_1":-15.5517093,"LINK":"https://www.google.com/maps/search/?api=1&query=Obras+Sociais+Vianna+de+Carvalho%2C+Rua+21%2C+Quadra+08%2C+s/nº+-+Bairro+Jardim+Florianópolis%2C+Cuiabá%2C+MT","NOMES_BAIRROS":"JARDIM FLORIANÓPOLIS","CONTROLE_1":"REGIÃO NORTE"},"geometry":{"type":"Point","coordinates":[-56.082832499999938,-15.55170929999997]}},
{"type":"Feature","properties":{"OBJECTID":159,"REGIONAL_1":"NORTE","UNIDADE_1":"EMEB Rafael Rueda","ENDERECO_1":"Av. Principal, s/n Bairro Jardim Umuarama","X_1":-56.0251051,"Y_1":-15.5515225,"LINK":"https://www.google.com/maps/search/?api=1&query=EMEB+Rafael+Rueda%2C+Av.+Principal%2C+s/n+Bairro+Jardim+Umuarama%2C+Cuiabá%2C+MT","NOMES_BAIRROS":"TRÊS BARRAS","CONTROLE_1":"REGIÃO NORTE"},"geometry":{"type":"Point","coordinates":[-56.025105100000019,-15.551522499999976]}},
{"type":"Feature","properties":{"OBJECTID":160,"REGIONAL_1":"NORTE","UNIDADE_1":"CEIC Profª Luciene Ferreira de Oliveira (antiga creche Jardim Umuarama)","ENDERECO_1":"Rua Três, Quadra 27 s/n Bairro Jardim Umuarama II","X_1":-56.0254011,"Y_1":-15.5503172,"LINK":"https://www.google.com/maps/search/?api=1&query=CEIC+Profª+Luciene+Ferreira+de+Oliveira+(antiga+creche+Jardim+Umuarama)%2C+Rua+Três%2C+Quadra+27+s/n+Bairro+Jardim+Umuarama+II%2C+Cuiabá%2C+MT","NOMES_BAIRROS":"TRÊS BARRAS","CONTROLE_1":"REGIÃO NORTE"},"geometry":{"type":"Point","coordinates":[-56.025401100000011,-15.5503172]}},
{"type":"Feature","properties":{"OBJECTID":161,"REGIONAL_1":"NORTE","UNIDADE_1":"EMEB Dep. Ulisses Guimarães","ENDERECO_1":"Rua Sete de Setembro, s/n Bairro Ouro Fino","X_1":-56.0504158,"Y_1":-15.5501291,"LINK":"https://www.google.com/maps/search/?api=1&query=EMEB+Dep.+Ulisses+Guimarães%2C+Rua+Sete+de+Setembro%2C+s/n+Bairro+Ouro+Fino%2C+Cuiabá%2C+MT","NOMES_BAIRROS":"MORADA DA SERRA","CONTROLE_1":"REGIÃO NORTE"},"geometry":{"type":"Point","coordinates":[-56.0504158,-15.550129099999879]}},
{"type":"Feature","properties":{"OBJECTID":162,"REGIONAL_1":"NORTE","UNIDADE_1":"CMEI Plácido Flaviano Curvo Filho","ENDERECO_1":"Bairro Morada da Serra","X_1":-56.0462383,"Y_1":-15.5493708,"LINK":"https://www.google.com/maps/search/?api=1&query=CMEI+Plácido+Flaviano+Curvo+Filho%2C+Bairro+Morada+da+Serra%2C+Cuiabá%2C+MT","NOMES_BAIRROS":"ÁREAS DE EXPANSÃO URBANA - REGIÃO NORTE","CONTROLE_1":"REGIÃO NORTE"},"geometry":{"type":"Point","coordinates":[-56.046238300000027,-15.54937080000002]}},
{"type":"Feature","properties":{"OBJECTID":163,"REGIONAL_1":"NORTE","UNIDADE_1":"CEIC Pe. Armando Cavallo","ENDERECO_1":"Av. Dra. Maria Auxiliadora Grissólia Mendes, s/n Bairro 1º de Março","X_1":-56.0323723,"Y_1":-15.549039,"LINK":"https://www.google.com/maps/search/?api=1&query=CEIC+Pe.+Armando+Cavallo%2C+Av.+Dra.+Maria+Auxiliadora+Grissólia+Mendes%2C+s/n+Bairro+1º+de+Março%2C+Cuiabá%2C+MT","NOMES_BAIRROS":"PRIMEIRO DE MARÇO","CONTROLE_1":"REGIÃO NORTE"},"geometry":{"type":"Point","coordinates":[-56.03237230000002,-15.549039]}},
{"type":"Feature","properties":{"OBJECTID":164,"REGIONAL_1":"ENTIDADE FILANTRÓPICA","UNIDADE_1":"Associação Assistencial Jesus é o Caminho e a Vida (Estrelinha de Jesus)","ENDERECO_1":"Rua D, Quadra 37, nº 24 - Bairro 1º de Março","X_1":-56.0317355,"Y_1":-15.5480261,"LINK":"https://www.google.com/maps/search/?api=1&query=Associação+Assistencial+Jesus+é+o+Caminho+e+a+Vida+(Estrelinha+de+Jesus)%2C+Rua+D%2C+Quadra+37%2C+nº+24+-+Bairro+1º+de+Março%2C+Cuiabá%2C+MT","NOMES_BAIRROS":"PRIMEIRO DE MARÇO","CONTROLE_1":"REGIÃO NORTE"},"geometry":{"type":"Point","coordinates":[-56.031735499999911,-15.548026099999959]}},
{"type":"Feature","properties":{"OBJECTID":165,"REGIONAL_1":"NORTE","UNIDADE_1":"EMEB Pedrosa de Morais e Silva","ENDERECO_1":"Rua C, Quadra 05, s/n Bairro Novo Paraíso","X_1":-56.0550554,"Y_1":-15.5471661,"LINK":"https://www.google.com/maps/search/?api=1&query=EMEB+Pedrosa+de+Morais+e+Silva%2C+Rua+C%2C+Quadra+05%2C+s/n+Bairro+Novo+Paraíso%2C+Cuiabá%2C+MT","NOMES_BAIRROS":"NOVO PARAÍSO","CONTROLE_1":"REGIÃO NORTE"},"geometry":{"type":"Point","coordinates":[-56.055055400000015,-15.547166100000027]}},
{"type":"Feature","properties":{"OBJECTID":166,"REGIONAL_1":"NORTE","UNIDADE_1":"EMEB Antônia Tita Maciel de Campos","ENDERECO_1":"Rua 07, Quadra 48, s/n Jardim Florianópolis","X_1":-56.079497,"Y_1":-15.547045,"LINK":"https://www.google.com/maps/search/?api=1&query=EMEB+Antônia+Tita+Maciel+de+Campos%2C+Rua+07%2C+Quadra+48%2C+s/n+Jardim+Florianópolis%2C+Cuiabá%2C+MT","NOMES_BAIRROS":"JARDIM FLORIANÓPOLIS","CONTROLE_1":"REGIÃO NORTE"},"geometry":{"type":"Point","coordinates":[-56.079497,-15.547045]}},
{"type":"Feature","properties":{"OBJECTID":167,"REGIONAL_1":"NORTE","UNIDADE_1":"EMEB Aristotelino Alves Praeiro","ENDERECO_1":"Av. Projetada, s/n Bairro 1º de Março","X_1":-56.0323071,"Y_1":-15.545305,"LINK":"https://www.google.com/maps/search/?api=1&query=EMEB+Aristotelino+Alves+Praeiro%2C+Av.+Projetada%2C+s/n+Bairro+1º+de+Março%2C+Cuiabá%2C+MT","NOMES_BAIRROS":"PRIMEIRO DE MARÇO","CONTROLE_1":"REGIÃO NORTE"},"geometry":{"type":"Point","coordinates":[-56.032307100000025,-15.545305]}},
{"type":"Feature","properties":{"OBJECTID":168,"REGIONAL_1":"NORTE","UNIDADE_1":"EMEB Lenine de Campos Povoas","ENDERECO_1":"Rua Salgado Filho, 321, Bairro Jardim União (próx. do CEIC Alê Guilherme Arfux da Costa Ribeiro ","X_1":-56.0753376,"Y_1":-15.5445808,"LINK":"https://www.google.com/maps/search/?api=1&query=EMEB+Lenine+de+Campos+Povoas%2C+Rua+Salgado+Filho%2C+321%2C+Bairro+Jardim+União+(próx.+do+CEIC+Alê+Guilherme+Arfux+da+Costa+Ribeiro%2C+Cuiabá%2C+MT","NOMES_BAIRROS":"CENTRO POLÍTICO ADMINISTRATIVO","CONTROLE_1":"REGIÃO NORTE"},"geometry":{"type":"Point","coordinates":[-56.075337599999955,-15.5445808]}},
{"type":"Feature","properties":{"OBJECTID":169,"REGIONAL_1":"ENTIDADE FILANTRÓPICA","UNIDADE_1":"Obras Sociais da Associação Irmão Praeiro","ENDERECO_1":"Rua 06, Quadra 08, nº 43 - Bairro Jardim Vitória","X_1":-56.0667453,"Y_1":-15.5440394,"LINK":"https://www.google.com/maps/search/?api=1&query=Obras+Sociais+da+Associação+Irmão+Praeiro%2C+Rua+06%2C+Quadra+08%2C+nº+43+-+Bairro+Jardim+Vitória%2C+Cuiabá%2C+MT","NOMES_BAIRROS":"JARDIM VITÓRIA","CONTROLE_1":"REGIÃO NORTE"},"geometry":{"type":"Point","coordinates":[-56.066745299999923,-15.544039399999974]}},
{"type":"Feature","properties":{"OBJECTID":170,"REGIONAL_1":"NORTE","UNIDADE_1":"CEIC Alê Guilherme Arfux da Costa Ribeiro ","ENDERECO_1":"Rua Rodrigues de Campos, 227, Jardim união","X_1":-56.0755904,"Y_1":-15.5435959,"LINK":"https://www.google.com/maps/search/?api=1&query=CEIC+Alê+Guilherme+Arfux+da+Costa+Ribeiro%2C+Rua+Rodrigues+de+Campos%2C+227%2C+Jardim+união%2C+Cuiabá%2C+MT","NOMES_BAIRROS":"CENTRO POLÍTICO ADMINISTRATIVO","CONTROLE_1":"REGIÃO NORTE"},"geometry":{"type":"Point","coordinates":[-56.07559040000001,-15.543595899999957]}},
{"type":"Feature","properties":{"OBJECTID":171,"REGIONAL_1":"NORTE","UNIDADE_1":"CMEI Jornalista Paulo Maria Ferreira Leite","ENDERECO_1":"Av. Padre José Tem Caté, s/n Bairro Jardim Vitória","X_1":-56.0672592,"Y_1":-15.5417572,"LINK":"https://www.google.com/maps/search/?api=1&query=CMEI+Jornalista+Paulo+Maria+Ferreira+Leite%2C+Av.+Padre+José+Tem+Caté%2C+s/n+Bairro+Jardim+Vitória%2C+Cuiabá%2C+MT","NOMES_BAIRROS":"JARDIM VITÓRIA","CONTROLE_1":"REGIÃO NORTE"},"geometry":{"type":"Point","coordinates":[-56.067259199999967,-15.54175719999995]}},
{"type":"Feature","properties":{"OBJECTID":172,"REGIONAL_1":"NORTE","UNIDADE_1":"CMEI Sergio Luiz Ferreira da Silva","ENDERECO_1":"Rua Três, nº 21 Bairro Jardim das Aroeiras","X_1":-56.041912,"Y_1":-15.5405437,"LINK":"https://www.google.com/maps/search/?api=1&query=CMEI+Sergio+Luiz+Ferreira+da+Silva%2C+Rua+Três%2C+nº+21+Bairro+Jardim+das+Aroeiras%2C+Cuiabá%2C+MT","NOMES_BAIRROS":"ÁREAS DE EXPANSÃO URBANA - REGIÃO NORTE","CONTROLE_1":"REGIÃO NORTE"},"geometry":{"type":"Point","coordinates":[-56.041912,-15.5405437]}},
{"type":"Feature","properties":{"OBJECTID":173,"REGIONAL_1":"ENTIDADE FILANTRÓPICA","UNIDADE_1":"Instituto de Promoção Humana Papa João XXIII","ENDERECO_1":"Rua Antônio Alves Martins, QDA 81 Lote 19 e 20. Novo Paraiso II","X_1":-56.05197496,"Y_1":-15.54030459,"LINK":"https://www.google.com/maps/search/?api=1&query=Instituto+de+Promoção+Humana+Papa+João+XXIII%2C+Rua+Antônio+Alves+Martins%2C+QDA+81+Lote+19+e+20.+Novo+Paraiso+II%2C+Cuiabá%2C+MT","NOMES_BAIRROS":"NOVO PARAÍSO","CONTROLE_1":"REGIÃO NORTE"},"geometry":{"type":"Point","coordinates":[-56.051974959999939,-15.540304589999948]}},
{"type":"Feature","properties":{"OBJECTID":174,"REGIONAL_1":"NORTE","UNIDADE_1":"EMEB Orzina de Amorim Soares","ENDERECO_1":"Av. José Estevão Torquato da Silva, s/n Jardim Vitória","X_1":-56.0680068,"Y_1":-15.5385343,"LINK":"https://www.google.com/maps/search/?api=1&query=EMEB+Orzina+de+Amorim+Soares%2C+Av.+José+Estevão+Torquato+da+Silva%2C+s/n+Jardim+Vitória%2C+Cuiabá%2C+MT","NOMES_BAIRROS":"ÁREAS DE EXPANSÃO URBANA - REGIÃO NORTE","CONTROLE_1":"REGIÃO NORTE"},"geometry":{"type":"Point","coordinates":[-56.068006799999921,-15.538534299999924]}},
{"type":"Feature","properties":{"OBJECTID":175,"REGIONAL_1":"NORTE","UNIDADE_1":"CEIC Maria Ligia Borges Garcia","ENDERECO_1":"Rua 29, Quadra 54, s/n Bairro Jardim Vitória (ao lado da EMEB Senhorinha Ana Alves de Oliveira)","X_1":-56.0757813,"Y_1":-15.5370526,"LINK":"https://www.google.com/maps/search/?api=1&query=CEIC+Maria+Ligia+Borges+Garcia%2C+Rua+29%2C+Quadra+54%2C+s/n+Bairro+Jardim+Vitória+(ao+lado+da+EMEB+Senhorinha+Ana+Alves+de+Oliveira)%2C+Cuiabá%2C+MT","NOMES_BAIRROS":"JARDIM VITÓRIA","CONTROLE_1":"REGIÃO NORTE"},"geometry":{"type":"Point","coordinates":[-56.075781299999903,-15.537052599999981]}},
{"type":"Feature","properties":{"OBJECTID":176,"REGIONAL_1":"NORTE","UNIDADE_1":"EMEB Senhorinha Ana Alves de Oliveira","ENDERECO_1":"Rodovia Emanoel Pinheiro, KM 06 Bairro Jardim Vitória","X_1":-56.0767245,"Y_1":-15.5370017,"LINK":"https://www.google.com/maps/search/?api=1&query=EMEB+Senhorinha+Ana+Alves+de+Oliveira%2C+Rodovia+Emanoel+Pinheiro%2C+KM+06+Bairro+Jardim+Vitória%2C+Cuiabá%2C+MT","NOMES_BAIRROS":"JARDIM VITÓRIA","CONTROLE_1":"REGIÃO NORTE"},"geometry":{"type":"Point","coordinates":[-56.076724499999955,-15.537001700000019]}},
{"type":"Feature","properties":{"OBJECTID":177,"REGIONAL_1":"NORTE","UNIDADE_1":"CMEI Paulo Ronan Ferraz Santos","ENDERECO_1":"Rua I, s/n Bairro Ilza Terezinha Piccoli","X_1":-56.0331285,"Y_1":-15.5367367,"LINK":"https://www.google.com/maps/search/?api=1&query=CMEI+Paulo+Ronan+Ferraz+Santos%2C+Rua+I%2C+s/n+Bairro+Ilza+Terezinha+Piccoli%2C+Cuiabá%2C+MT","NOMES_BAIRROS":"ÁREAS DE EXPANSÃO URBANA - REGIÃO NORTE","CONTROLE_1":"REGIÃO NORTE"},"geometry":{"type":"Point","coordinates":[-56.033128499999975,-15.536736699999949]}},
{"type":"Feature","properties":{"OBJECTID":178,"REGIONAL_1":"ENTIDADE FILANTRÓPICA","UNIDADE_1":"Associação Espírita Yvonne Amaral Pereira","ENDERECO_1":"Rua 25, Quadra 47, Lote 03 - Bairro Jardim Vitória","X_1":-56.0736481,"Y_1":-15.5364838,"LINK":"https://www.google.com/maps/search/?api=1&query=Associação+Espírita+Yvonne+Amaral+Pereira%2C+Rua+25%2C+Quadra+47%2C+Lote+03+-+Bairro+Jardim+Vitória%2C+Cuiabá%2C+MT","NOMES_BAIRROS":"JARDIM VITÓRIA","CONTROLE_1":"REGIÃO NORTE"},"geometry":{"type":"Point","coordinates":[-56.073648099999957,-15.536483799999985]}},
{"type":"Feature","properties":{"OBJECTID":179,"REGIONAL_1":"CAMPO","UNIDADE_1":"EMEBC Estevão Alves","ENDERECO_1":"Rod. Emanuel Pinheiro, KM 22","X_1":-55.99094,"Y_1":-15.39606,"LINK":"https://www.google.com/maps/search/?api=1&query=EMEBC+Estevão+Alves%2C+Rod.+Emanuel+Pinheiro%2C+KM+22%2C+Cuiabá%2C+MT","NOMES_BAIRROS":"ZONA RURAL","CONTROLE_1":"ZONA RURAL"},"geometry":{"type":"Point","coordinates":[-55.99094,-15.39606]}},
{"type":"Feature","properties":{"OBJECTID":180,"REGIONAL_1":"CAMPO","UNIDADE_1":"EMEBC Herbert de Souza","ENDERECO_1":"Cinturão Verde, Cuiabá","X_1":-55.93027,"Y_1":-15.63035,"LINK":"https://www.google.com/maps/search/?api=1&query=EMEBC+Herbert+de+Souza%2C+Cinturão+Verde%2C+Cuiabá%2C+Cuiabá%2C+MT","NOMES_BAIRROS":"ZONA RURAL","CONTROLE_1":"ZONA RURAL"},"geometry":{"type":"Point","coordinates":[-55.93027,-15.63035]}},
{"type":"Feature","properties":{"OBJECTID":181,"REGIONAL_1":"CAMPO","UNIDADE_1":"EMEBC Nossa Senhora Penha de França  ","ENDERECO_1":"Rodovia MT 402, s/n Distrito Coxipó do Ouro","X_1":-55.9773076,"Y_1":-15.4601778,"LINK":"https://www.google.com/maps/search/?api=1&query=EMEBC+Nossa+Senhora+Penha+de+França%2C+Rodovia+MT+402%2C+s/n+Distrito+Coxipó+do+Ouro%2C+Cuiabá%2C+MT","NOMES_BAIRROS":"ZONA RURAL","CONTROLE_1":"ZONA RURAL"},"geometry":{"type":"Point","coordinates":[-55.977307600000017,-15.46017779999994]}},
{"type":"Feature","properties":{"OBJECTID":182,"REGIONAL_1":"CAMPO","UNIDADE_1":"EMEBC Nova Esperança","ENDERECO_1":"Distrito do Pequizeiro.","X_1":-56.045528,"Y_1":-15.729611,"LINK":"https://www.google.com/maps/search/?api=1&query=EMEBC+Nova+Esperança%2C+Distrito+do+Pequizeiro.%2C+Cuiabá%2C+MT","NOMES_BAIRROS":"ZONA RURAL","CONTROLE_1":"ZONA RURAL"},"geometry":{"type":"Point","coordinates":[-56.045528,-15.729611]}},
{"type":"Feature","properties":{"OBJECTID":183,"REGIONAL_1":"CAMPO","UNIDADE_1":"EMEBC Novo Renascer","ENDERECO_1":"Estrada Rio dos Couros, KM 54","X_1":-55.777278,"Y_1":-15.57,"LINK":"https://www.google.com/maps/search/?api=1&query=EMEBC+Novo+Renascer%2C+Estrada+Rio+dos+Couros%2C+KM+54%2C+Cuiabá%2C+MT","NOMES_BAIRROS":"ZONA RURAL","CONTROLE_1":"ZONA RURAL"},"geometry":{"type":"Point","coordinates":[-55.777278,-15.57]}},
{"type":"Feature","properties":{"OBJECTID":184,"REGIONAL_1":"CAMPO","UNIDADE_1":"EMEBC Profª Benedita Xavier Rodrigues ","ENDERECO_1":"Rua Luiz Firmino da Fonseca, nº 94 Distrito de Nossa Senhora da Guia","X_1":-56.2306099,"Y_1":-15.356219,"LINK":"https://www.google.com/maps/search/?api=1&query=EMEBC+Profª+Benedita+Xavier+Rodrigues%2C+Rua+Luiz+Firmino+da+Fonseca%2C+nº+94+Distrito+de+Nossa+Senhora+da+Guia%2C+Cuiabá%2C+MT","NOMES_BAIRROS":"ZONA RURAL","CONTROLE_1":"ZONA RURAL"},"geometry":{"type":"Point","coordinates":[-56.2306099,-15.356219]}},
{"type":"Feature","properties":{"OBJECTID":185,"REGIONAL_1":"CAMPO","UNIDADE_1":"EMEBC Profª Hilda Caetano de Oliveira Leite ","ENDERECO_1":"Estrada Velha da Guia, KM 09, Distrito do Sucuri (ao lado do CEIC Elzira Cavalcante Silva)","X_1":-56.1579299,"Y_1":-15.5476556,"LINK":"https://www.google.com/maps/search/?api=1&query=EMEBC+Profª+Hilda+Caetano+de+Oliveira+Leite%2C+Estrada+Velha+da+Guia%2C+KM+09%2C+Distrito+do+Sucuri+(ao+lado+do+CEIC+Elzira+Cavalcante+Silva)%2C+Cuiabá%2C+MT","NOMES_BAIRROS":"ZONA RURAL","CONTROLE_1":"ZONA RURAL"},"geometry":{"type":"Point","coordinates":[-56.157929899999942,-15.547655599999928]}},
{"type":"Feature","properties":{"OBJECTID":186,"REGIONAL_1":"CAMPO","UNIDADE_1":"EMEBC Profº Udeney Gonçalves de Amorim ","ENDERECO_1":"Av. Ovidio Paulo dos Santos, s/n Distrito do Águaçu - Cuiabá MT (Rod. MT 401)","X_1":-56.1302417,"Y_1":-15.2818012,"LINK":"https://www.google.com/maps/search/?api=1&query=EMEBC+Profº+Udeney+Gonçalves+de+Amorim%2C+Av.+Ovidio+Paulo+dos+Santos%2C+s/n+Distrito+do+Águaçu+-+Cuiabá+MT+(Rod.+MT+401)%2C+Cuiabá%2C+MT","NOMES_BAIRROS":"ZONA RURAL","CONTROLE_1":"ZONA RURAL"},"geometry":{"type":"Point","coordinates":[-56.1302417,-15.281801200000018]}},
{"type":"Feature","properties":{"OBJECTID":187,"REGIONAL_1":"NORTE","UNIDADE_1":"CEIC Altos da Gloria","ENDERECO_1":"Rua 15, Quadra 60, s/n Bairro Altos da Glória","X_1":-56.0200041,"Y_1":-15.5440838,"LINK":"https://www.google.com/maps/search/?api=1&query=CEIC+Altos+da+Gloria%2C+Rua+15%2C+Quadra+60%2C+s/n+Bairro+Altos+da+Glória%2C+Cuiabá%2C+MT","NOMES_BAIRROS":"ZONA RURAL","CONTROLE_1":"ZONA RURAL"},"geometry":{"type":"Point","coordinates":[-56.020004099999937,-15.54408380000001]}},
{"type":"Feature","properties":{"OBJECTID":188,"REGIONAL_1":"NORTE","UNIDADE_1":"EMEB Profª Gracildes de Mello Dantas","ENDERECO_1":"Rua 15, Qd. 60, s/n Bairro Altos da Glória (ao lado do CEIC Altos da Gloria)","X_1":-56.0200041,"Y_1":-15.5440838,"LINK":"https://www.google.com/maps/search/?api=1&query=EMEB+Profª+Gracildes+de+Mello+Dantas%2C+Rua+15%2C+Qd.+60%2C+s/n+Bairro+Altos+da+Glória+(ao+lado+do+CEIC+Altos+da+Gloria)%2C+Cuiabá%2C+MT","NOMES_BAIRROS":"ZONA RURAL","CONTROLE_1":"ZONA RURAL"},"geometry":{"type":"Point","coordinates":[-56.020004099999937,-15.54408380000001]}},
{"type":"Feature","properties":{"OBJECTID":189,"REGIONAL_1":"OESTE","UNIDADE_1":"CEIC Elzira Cavalcante Silva ","ENDERECO_1":"Rua Mizael Rocha, s/n Distrito Sucuri","X_1":-56.1580769,"Y_1":-15.5480796,"LINK":"https://www.google.com/maps/search/?api=1&query=CEIC+Elzira+Cavalcante+Silva%2C+Rua+Mizael+Rocha%2C+s/n+Distrito+Sucuri%2C+Cuiabá%2C+MT","NOMES_BAIRROS":"ZONA RURAL","CONTROLE_1":"ZONA RURAL"},"geometry":{"type":"Point","coordinates":[-56.158076899999912,-15.548079599999937]}}
]
}
